<gpx xmlns="http://www.topografix.com/GPX/1/1" xmlns:xsi="http://www.w3.org/2001/XMLSchema-instance" xsi:schemaLocation="http://www.topografix.com/GPX/1/1 http://www.topografix.com/GPX/1/1/gpx.xsd" version="1.1" creator="togpx"><metadata/><wpt lat="43.60871720785808" lon="3.8797402381896977"><name></name><desc>label=6 Place de la Comédie, Montpellier,France</desc></wpt><wpt lat="43.59686535323495" lon="3.90003651380539"><name></name><desc>label=Allée de la Méditerranée, Montpellier,France</desc></wpt><wpt lat="43.59185354229392" lon="3.9053928852081303"><name></name><desc>label=1348 Avenue Raymond Dugrand, Montpellier,France</desc></wpt><wpt lat="43.57905552772658" lon="3.904147506416758"><name></name><desc>label=11 Plan du Minotaure, Lattes,France</desc></wpt><wpt lat="43.552837441998285" lon="3.8970823302791455"><name></name><desc>label=Impasse des Saladelles, Lattes,France</desc></wpt><wpt lat="43.646634910422485" lon="4.405776973892107"><name></name><desc>label=Château dEspeyran, Saint-Gilles,France</desc></wpt><wpt lat="43.679209" lon="4.430785"><name></name><desc>label=Saint-Gilles, France</desc></wpt><trk><name></name><desc>ascent=150.1
descent=179.1
opacity=0.9</desc><trkseg><trkpt lat="43.60872" lon="3.879737"><ele>46</ele></trkpt><trkpt lat="43.608725" lon="3.879746"><ele>46</ele></trkpt><trkpt lat="43.608539" lon="3.879934"><ele>46</ele></trkpt><trkpt lat="43.608528" lon="3.879915"><ele>46</ele></trkpt><trkpt lat="43.608452" lon="3.879988"><ele>46</ele></trkpt><trkpt lat="43.60842" lon="3.879999"><ele>46</ele></trkpt><trkpt lat="43.608319" lon="3.879917"><ele>46</ele></trkpt><trkpt lat="43.608205" lon="3.879944"><ele>46</ele></trkpt><trkpt lat="43.608134" lon="3.879998"><ele>42</ele></trkpt><trkpt lat="43.608103" lon="3.88002"><ele>42</ele></trkpt><trkpt lat="43.607925" lon="3.880146"><ele>42</ele></trkpt><trkpt lat="43.607092" lon="3.880758"><ele>42</ele></trkpt><trkpt lat="43.60706" lon="3.880784"><ele>42</ele></trkpt><trkpt lat="43.607023" lon="3.881024"><ele>42</ele></trkpt><trkpt lat="43.606838" lon="3.881552"><ele>37</ele></trkpt><trkpt lat="43.606676" lon="3.882019"><ele>37</ele></trkpt><trkpt lat="43.606567" lon="3.882366"><ele>37</ele></trkpt><trkpt lat="43.60657" lon="3.88243"><ele>37</ele></trkpt><trkpt lat="43.606588" lon="3.882503"><ele>37</ele></trkpt><trkpt lat="43.606524" lon="3.882586"><ele>37</ele></trkpt><trkpt lat="43.606459" lon="3.882775"><ele>37</ele></trkpt><trkpt lat="43.60637" lon="3.883019"><ele>37</ele></trkpt><trkpt lat="43.60628" lon="3.88334"><ele>34.9</ele></trkpt><trkpt lat="43.606257" lon="3.883478"><ele>33</ele></trkpt><trkpt lat="43.606253" lon="3.883526"><ele>33</ele></trkpt><trkpt lat="43.60628" lon="3.884045"><ele>33</ele></trkpt><trkpt lat="43.606307" lon="3.884362"><ele>33</ele></trkpt><trkpt lat="43.606325" lon="3.884615"><ele>33</ele></trkpt><trkpt lat="43.606324" lon="3.884845"><ele>32.9</ele></trkpt><trkpt lat="43.606299" lon="3.885052"><ele>32.9</ele></trkpt><trkpt lat="43.606018" lon="3.886037"><ele>33</ele></trkpt><trkpt lat="43.605995" lon="3.886113"><ele>33</ele></trkpt><trkpt lat="43.605843" lon="3.886624"><ele>33</ele></trkpt><trkpt lat="43.605579" lon="3.887534"><ele>26</ele></trkpt><trkpt lat="43.605471" lon="3.88792"><ele>26</ele></trkpt><trkpt lat="43.605452" lon="3.888025"><ele>26</ele></trkpt><trkpt lat="43.605227" lon="3.888289"><ele>26</ele></trkpt><trkpt lat="43.604856" lon="3.888798"><ele>26</ele></trkpt><trkpt lat="43.604717" lon="3.888973"><ele>26</ele></trkpt><trkpt lat="43.604106" lon="3.889721"><ele>21</ele></trkpt><trkpt lat="43.604073" lon="3.889763"><ele>21</ele></trkpt><trkpt lat="43.604012" lon="3.889839"><ele>19</ele></trkpt><trkpt lat="43.603789" lon="3.890098"><ele>19</ele></trkpt><trkpt lat="43.603768" lon="3.890119"><ele>19</ele></trkpt><trkpt lat="43.603696" lon="3.890201"><ele>19</ele></trkpt><trkpt lat="43.603605" lon="3.890317"><ele>19</ele></trkpt><trkpt lat="43.603606" lon="3.890466"><ele>19</ele></trkpt><trkpt lat="43.603615" lon="3.890585"><ele>19</ele></trkpt><trkpt lat="43.603623" lon="3.890673"><ele>19</ele></trkpt><trkpt lat="43.603672" lon="3.891363"><ele>19</ele></trkpt><trkpt lat="43.603758" lon="3.892556"><ele>18</ele></trkpt><trkpt lat="43.603797" lon="3.892995"><ele>18</ele></trkpt><trkpt lat="43.603768" lon="3.893015"><ele>18</ele></trkpt><trkpt lat="43.603775" lon="3.893116"><ele>18</ele></trkpt><trkpt lat="43.603779" lon="3.893182"><ele>18</ele></trkpt><trkpt lat="43.603794" lon="3.893296"><ele>18</ele></trkpt><trkpt lat="43.603827" lon="3.893826"><ele>20</ele></trkpt><trkpt lat="43.603884" lon="3.894709"><ele>20</ele></trkpt><trkpt lat="43.603894" lon="3.894827"><ele>20</ele></trkpt><trkpt lat="43.603946" lon="3.89482"><ele>20</ele></trkpt><trkpt lat="43.603966" lon="3.895039"><ele>20</ele></trkpt><trkpt lat="43.60397" lon="3.8951"><ele>20</ele></trkpt><trkpt lat="43.60401" lon="3.895603"><ele>20</ele></trkpt><trkpt lat="43.604021" lon="3.895745"><ele>18</ele></trkpt><trkpt lat="43.604023" lon="3.895781"><ele>18</ele></trkpt><trkpt lat="43.604035" lon="3.895882"><ele>18</ele></trkpt><trkpt lat="43.603997" lon="3.895932"><ele>18</ele></trkpt><trkpt lat="43.603991" lon="3.896005"><ele>18</ele></trkpt><trkpt lat="43.603908" lon="3.896004"><ele>18</ele></trkpt><trkpt lat="43.603902" lon="3.896043"><ele>18</ele></trkpt><trkpt lat="43.603896" lon="3.896061"><ele>18</ele></trkpt><trkpt lat="43.603879" lon="3.89611"><ele>18</ele></trkpt><trkpt lat="43.603864" lon="3.89618"><ele>18</ele></trkpt><trkpt lat="43.604061" lon="3.896272"><ele>18</ele></trkpt><trkpt lat="43.604139" lon="3.897491"><ele>18</ele></trkpt><trkpt lat="43.60414" lon="3.897529"><ele>18</ele></trkpt><trkpt lat="43.604072" lon="3.897515"><ele>18</ele></trkpt><trkpt lat="43.603813" lon="3.897398"><ele>18</ele></trkpt><trkpt lat="43.603732" lon="3.897344"><ele>18</ele></trkpt><trkpt lat="43.603172" lon="3.896825"><ele>18</ele></trkpt><trkpt lat="43.603093" lon="3.896788"><ele>18</ele></trkpt><trkpt lat="43.603005" lon="3.896742"><ele>18</ele></trkpt><trkpt lat="43.602779" lon="3.896632"><ele>18</ele></trkpt><trkpt lat="43.602433" lon="3.896498"><ele>18</ele></trkpt><trkpt lat="43.602355" lon="3.896474"><ele>18</ele></trkpt><trkpt lat="43.601797" lon="3.896327"><ele>14</ele></trkpt><trkpt lat="43.601707" lon="3.896305"><ele>14</ele></trkpt><trkpt lat="43.601487" lon="3.896284"><ele>14</ele></trkpt><trkpt lat="43.601329" lon="3.896351"><ele>14</ele></trkpt><trkpt lat="43.600845" lon="3.896696"><ele>14</ele></trkpt><trkpt lat="43.600717" lon="3.896802"><ele>14</ele></trkpt><trkpt lat="43.600599" lon="3.896937"><ele>14</ele></trkpt><trkpt lat="43.600486" lon="3.897105"><ele>14</ele></trkpt><trkpt lat="43.600351" lon="3.897333"><ele>14</ele></trkpt><trkpt lat="43.600269" lon="3.897348"><ele>12.2</ele></trkpt><trkpt lat="43.600205" lon="3.897393"><ele>12</ele></trkpt><trkpt lat="43.599634" lon="3.898005"><ele>11</ele></trkpt><trkpt lat="43.599407" lon="3.898191"><ele>11</ele></trkpt><trkpt lat="43.599179" lon="3.898349"><ele>10.9</ele></trkpt><trkpt lat="43.598959" lon="3.898471"><ele>10.7</ele></trkpt><trkpt lat="43.598206" lon="3.898776"><ele>11.3</ele></trkpt><trkpt lat="43.597743" lon="3.899083"><ele>11.3</ele></trkpt><trkpt lat="43.597525" lon="3.899263"><ele>11.1</ele></trkpt><trkpt lat="43.597302" lon="3.89948"><ele>11.1</ele></trkpt><trkpt lat="43.596976" lon="3.899918"><ele>10.7</ele></trkpt><trkpt lat="43.596896" lon="3.9"><ele>10.7</ele></trkpt><trkpt lat="43.596871" lon="3.900043"><ele>10.9</ele></trkpt><trkpt lat="43.59658" lon="3.900517"><ele>11.2</ele></trkpt><trkpt lat="43.596313" lon="3.900875"><ele>11.3</ele></trkpt><trkpt lat="43.595653" lon="3.901812"><ele>12.2</ele></trkpt><trkpt lat="43.595266" lon="3.902397"><ele>11.5</ele></trkpt><trkpt lat="43.595034" lon="3.902708"><ele>11</ele></trkpt><trkpt lat="43.595189" lon="3.902701"><ele>11</ele></trkpt><trkpt lat="43.594758" lon="3.903281"><ele>11</ele></trkpt><trkpt lat="43.594475" lon="3.903578"><ele>11</ele></trkpt><trkpt lat="43.594121" lon="3.903932"><ele>11.6</ele></trkpt><trkpt lat="43.593887" lon="3.904066"><ele>13</ele></trkpt><trkpt lat="43.593604" lon="3.904188"><ele>12</ele></trkpt><trkpt lat="43.592784" lon="3.904575"><ele>12</ele></trkpt><trkpt lat="43.59257" lon="3.904688"><ele>12</ele></trkpt><trkpt lat="43.592376" lon="3.90482"><ele>12</ele></trkpt><trkpt lat="43.5922" lon="3.904982"><ele>12</ele></trkpt><trkpt lat="43.591898" lon="3.905324"><ele>12</ele></trkpt><trkpt lat="43.591852" lon="3.905391"><ele>12</ele></trkpt><trkpt lat="43.591623" lon="3.905719"><ele>12</ele></trkpt><trkpt lat="43.591436" lon="3.906035"><ele>11</ele></trkpt><trkpt lat="43.591299" lon="3.906266"><ele>9.6</ele></trkpt><trkpt lat="43.591079" lon="3.906586"><ele>9.5</ele></trkpt><trkpt lat="43.590727" lon="3.907001"><ele>9</ele></trkpt><trkpt lat="43.590576" lon="3.907163"><ele>9</ele></trkpt><trkpt lat="43.59037" lon="3.907316"><ele>9</ele></trkpt><trkpt lat="43.58988" lon="3.907575"><ele>9</ele></trkpt><trkpt lat="43.58839" lon="3.907893"><ele>9</ele></trkpt><trkpt lat="43.588076" lon="3.907886"><ele>9</ele></trkpt><trkpt lat="43.58799" lon="3.908038"><ele>9</ele></trkpt><trkpt lat="43.586624" lon="3.907686"><ele>8.1</ele></trkpt><trkpt lat="43.586575" lon="3.907651"><ele>8.1</ele></trkpt><trkpt lat="43.586515" lon="3.907509"><ele>8</ele></trkpt><trkpt lat="43.586443" lon="3.907445"><ele>8</ele></trkpt><trkpt lat="43.586016" lon="3.907394"><ele>8</ele></trkpt><trkpt lat="43.585752" lon="3.907434"><ele>8</ele></trkpt><trkpt lat="43.585231" lon="3.907576"><ele>8</ele></trkpt><trkpt lat="43.584895" lon="3.907708"><ele>8</ele></trkpt><trkpt lat="43.584527" lon="3.907911"><ele>8</ele></trkpt><trkpt lat="43.584277" lon="3.908008"><ele>8</ele></trkpt><trkpt lat="43.584083" lon="3.908054"><ele>8</ele></trkpt><trkpt lat="43.583692" lon="3.908148"><ele>8</ele></trkpt><trkpt lat="43.583428" lon="3.908148"><ele>8</ele></trkpt><trkpt lat="43.581504" lon="3.907984"><ele>8</ele></trkpt><trkpt lat="43.581075" lon="3.907831"><ele>8</ele></trkpt><trkpt lat="43.580838" lon="3.907697"><ele>8</ele></trkpt><trkpt lat="43.580618" lon="3.907498"><ele>8</ele></trkpt><trkpt lat="43.580209" lon="3.906946"><ele>7.9</ele></trkpt><trkpt lat="43.579246" lon="3.904886"><ele>7.5</ele></trkpt><trkpt lat="43.579091" lon="3.904438"><ele>7.5</ele></trkpt><trkpt lat="43.578979" lon="3.904223"><ele>6.8</ele></trkpt><trkpt lat="43.578937" lon="3.904141"><ele>6</ele></trkpt><trkpt lat="43.578784" lon="3.903885"><ele>6.7</ele></trkpt><trkpt lat="43.577943" lon="3.902869"><ele>7</ele></trkpt><trkpt lat="43.576509" lon="3.901219"><ele>7</ele></trkpt><trkpt lat="43.576138" lon="3.900809"><ele>7</ele></trkpt><trkpt lat="43.576091" lon="3.900793"><ele>7</ele></trkpt><trkpt lat="43.576052" lon="3.900825"><ele>7</ele></trkpt><trkpt lat="43.575951" lon="3.90101"><ele>7</ele></trkpt><trkpt lat="43.575899" lon="3.901073"><ele>7</ele></trkpt><trkpt lat="43.575764" lon="3.900966"><ele>7</ele></trkpt><trkpt lat="43.575537" lon="3.900645"><ele>6.7</ele></trkpt><trkpt lat="43.575384" lon="3.900471"><ele>6.7</ele></trkpt><trkpt lat="43.574946" lon="3.900243"><ele>6.8</ele></trkpt><trkpt lat="43.574711" lon="3.90005"><ele>6.6</ele></trkpt><trkpt lat="43.574666" lon="3.899968"><ele>6</ele></trkpt><trkpt lat="43.574577" lon="3.899774"><ele>5.5</ele></trkpt><trkpt lat="43.574565" lon="3.899655"><ele>5.4</ele></trkpt><trkpt lat="43.574534" lon="3.899596"><ele>5</ele></trkpt><trkpt lat="43.574354" lon="3.899371"><ele>5</ele></trkpt><trkpt lat="43.574328" lon="3.899291"><ele>5</ele></trkpt><trkpt lat="43.574619" lon="3.898947"><ele>5</ele></trkpt><trkpt lat="43.574649" lon="3.898878"><ele>5</ele></trkpt><trkpt lat="43.574644" lon="3.898736"><ele>5</ele></trkpt><trkpt lat="43.574512" lon="3.898529"><ele>5.2</ele></trkpt><trkpt lat="43.574258" lon="3.89821"><ele>5.2</ele></trkpt><trkpt lat="43.574036" lon="3.898027"><ele>5.2</ele></trkpt><trkpt lat="43.573611" lon="3.897823"><ele>5.3</ele></trkpt><trkpt lat="43.573057" lon="3.897711"><ele>5.7</ele></trkpt><trkpt lat="43.572308" lon="3.897734"><ele>6</ele></trkpt><trkpt lat="43.572195" lon="3.897762"><ele>6.2</ele></trkpt><trkpt lat="43.572091" lon="3.897816"><ele>6</ele></trkpt><trkpt lat="43.571963" lon="3.897959"><ele>5</ele></trkpt><trkpt lat="43.571918" lon="3.898009"><ele>5</ele></trkpt><trkpt lat="43.571863" lon="3.898062"><ele>5</ele></trkpt><trkpt lat="43.571744" lon="3.898189"><ele>5</ele></trkpt><trkpt lat="43.571644" lon="3.898306"><ele>5</ele></trkpt><trkpt lat="43.571595" lon="3.898334"><ele>5</ele></trkpt><trkpt lat="43.571517" lon="3.898185"><ele>5</ele></trkpt><trkpt lat="43.571447" lon="3.898146"><ele>5</ele></trkpt><trkpt lat="43.57139" lon="3.89809"><ele>5.1</ele></trkpt><trkpt lat="43.571194" lon="3.898056"><ele>5.1</ele></trkpt><trkpt lat="43.571034" lon="3.898062"><ele>5.1</ele></trkpt><trkpt lat="43.57083" lon="3.898099"><ele>5.1</ele></trkpt><trkpt lat="43.570686" lon="3.898014"><ele>6</ele></trkpt><trkpt lat="43.570642" lon="3.897984"><ele>6</ele></trkpt><trkpt lat="43.570623" lon="3.898019"><ele>6</ele></trkpt><trkpt lat="43.570532" lon="3.898132"><ele>6</ele></trkpt><trkpt lat="43.570488" lon="3.898094"><ele>5.6</ele></trkpt><trkpt lat="43.569451" lon="3.89769"><ele>5.4</ele></trkpt><trkpt lat="43.569245" lon="3.897625"><ele>5.2</ele></trkpt><trkpt lat="43.567745" lon="3.897258"><ele>4</ele></trkpt><trkpt lat="43.566798" lon="3.897113"><ele>3.8</ele></trkpt><trkpt lat="43.566514" lon="3.897046"><ele>3.6</ele></trkpt><trkpt lat="43.566073" lon="3.896902"><ele>3</ele></trkpt><trkpt lat="43.565563" lon="3.896728"><ele>3</ele></trkpt><trkpt lat="43.564767" lon="3.896459"><ele>3</ele></trkpt><trkpt lat="43.563373" lon="3.896017"><ele>5</ele></trkpt><trkpt lat="43.562898" lon="3.895866"><ele>5</ele></trkpt><trkpt lat="43.562188" lon="3.895646"><ele>2.7</ele></trkpt><trkpt lat="43.561469" lon="3.895453"><ele>2</ele></trkpt><trkpt lat="43.560104" lon="3.895136"><ele>2</ele></trkpt><trkpt lat="43.55975" lon="3.894953"><ele>2</ele></trkpt><trkpt lat="43.55895" lon="3.894357"><ele>2</ele></trkpt><trkpt lat="43.558814" lon="3.894297"><ele>2</ele></trkpt><trkpt lat="43.558538" lon="3.89425"><ele>2</ele></trkpt><trkpt lat="43.558407" lon="3.894271"><ele>2</ele></trkpt><trkpt lat="43.558201" lon="3.894362"><ele>2</ele></trkpt><trkpt lat="43.558039" lon="3.894493"><ele>2</ele></trkpt><trkpt lat="43.557912" lon="3.894664"><ele>1.9</ele></trkpt><trkpt lat="43.557801" lon="3.894861"><ele>1.9</ele></trkpt><trkpt lat="43.557236" lon="3.896076"><ele>1.4</ele></trkpt><trkpt lat="43.557006" lon="3.896462"><ele>1</ele></trkpt><trkpt lat="43.556907" lon="3.896573"><ele>1</ele></trkpt><trkpt lat="43.556833" lon="3.896666"><ele>1.2</ele></trkpt><trkpt lat="43.556666" lon="3.896794"><ele>1.2</ele></trkpt><trkpt lat="43.556398" lon="3.896925"><ele>1.3</ele></trkpt><trkpt lat="43.555795" lon="3.897189"><ele>1.4</ele></trkpt><trkpt lat="43.555568" lon="3.897263"><ele>1.6</ele></trkpt><trkpt lat="43.555264" lon="3.897301"><ele>1.8</ele></trkpt><trkpt lat="43.554263" lon="3.897163"><ele>1.8</ele></trkpt><trkpt lat="43.552852" lon="3.896919"><ele>1.3</ele></trkpt><trkpt lat="43.551828" lon="3.896743"><ele>0.7</ele></trkpt><trkpt lat="43.55177" lon="3.896744"><ele>0.6</ele></trkpt><trkpt lat="43.551734" lon="3.896772"><ele>0.4</ele></trkpt><trkpt lat="43.551703" lon="3.896869"><ele>0</ele></trkpt><trkpt lat="43.55181" lon="3.89805"><ele>1</ele></trkpt><trkpt lat="43.5511" lon="3.897812"><ele>1</ele></trkpt><trkpt lat="43.54923" lon="3.897324"><ele>0.2</ele></trkpt><trkpt lat="43.54835" lon="3.897203"><ele>0.2</ele></trkpt><trkpt lat="43.547781" lon="3.897166"><ele>0.3</ele></trkpt><trkpt lat="43.547639" lon="3.897206"><ele>0.4</ele></trkpt><trkpt lat="43.545639" lon="3.897307"><ele>1</ele></trkpt><trkpt lat="43.54475" lon="3.897423"><ele>1.1</ele></trkpt><trkpt lat="43.54406" lon="3.897561"><ele>1.2</ele></trkpt><trkpt lat="43.543669" lon="3.897726"><ele>1.2</ele></trkpt><trkpt lat="43.542953" lon="3.898222"><ele>1.6</ele></trkpt><trkpt lat="43.542583" lon="3.898581"><ele>1.8</ele></trkpt><trkpt lat="43.542331" lon="3.898947"><ele>2</ele></trkpt><trkpt lat="43.542089" lon="3.899254"><ele>2</ele></trkpt><trkpt lat="43.54192" lon="3.899462"><ele>2</ele></trkpt><trkpt lat="43.54146" lon="3.899853"><ele>1</ele></trkpt><trkpt lat="43.541148" lon="3.90021"><ele>0.8</ele></trkpt><trkpt lat="43.540797" lon="3.900513"><ele>0.3</ele></trkpt><trkpt lat="43.538675" lon="3.903007"><ele>1</ele></trkpt><trkpt lat="43.537703" lon="3.904104"><ele>0.5</ele></trkpt><trkpt lat="43.537043" lon="3.904928"><ele>0.6</ele></trkpt><trkpt lat="43.536785" lon="3.905332"><ele>0.6</ele></trkpt><trkpt lat="43.536603" lon="3.90569"><ele>0.7</ele></trkpt><trkpt lat="43.536346" lon="3.906347"><ele>0.6</ele></trkpt><trkpt lat="43.536182" lon="3.906962"><ele>0.4</ele></trkpt><trkpt lat="43.536079" lon="3.907624"><ele>0</ele></trkpt><trkpt lat="43.536046" lon="3.908064"><ele>0</ele></trkpt><trkpt lat="43.536037" lon="3.908469"><ele>0</ele></trkpt><trkpt lat="43.536106" lon="3.912439"><ele>0</ele></trkpt><trkpt lat="43.536103" lon="3.913187"><ele>0</ele></trkpt><trkpt lat="43.5361" lon="3.913253"><ele>0</ele></trkpt><trkpt lat="43.536098" lon="3.91338"><ele>0</ele></trkpt><trkpt lat="43.536094" lon="3.913439"><ele>0</ele></trkpt><trkpt lat="43.536029" lon="3.914152"><ele>0.1</ele></trkpt><trkpt lat="43.535944" lon="3.914675"><ele>0.1</ele></trkpt><trkpt lat="43.53583" lon="3.915286"><ele>0.2</ele></trkpt><trkpt lat="43.535579" lon="3.916272"><ele>0.4</ele></trkpt><trkpt lat="43.535396" lon="3.916876"><ele>0.7</ele></trkpt><trkpt lat="43.535243" lon="3.917319"><ele>1</ele></trkpt><trkpt lat="43.535107" lon="3.917632"><ele>1.3</ele></trkpt><trkpt lat="43.534755" lon="3.918303"><ele>2</ele></trkpt><trkpt lat="43.534675" lon="3.918461"><ele>2</ele></trkpt><trkpt lat="43.534497" lon="3.918801"><ele>1</ele></trkpt><trkpt lat="43.534321" lon="3.919116"><ele>1</ele></trkpt><trkpt lat="43.533888" lon="3.919865"><ele>0.8</ele></trkpt><trkpt lat="43.533663" lon="3.920196"><ele>0.7</ele></trkpt><trkpt lat="43.533313" lon="3.920794"><ele>0.4</ele></trkpt><trkpt lat="43.532569" lon="3.92215"><ele>0.3</ele></trkpt><trkpt lat="43.531448" lon="3.924274"><ele>0</ele></trkpt><trkpt lat="43.531457" lon="3.924541"><ele>0</ele></trkpt><trkpt lat="43.5315" lon="3.924657"><ele>0.7</ele></trkpt><trkpt lat="43.531616" lon="3.924832"><ele>0.8</ele></trkpt><trkpt lat="43.531631" lon="3.924898"><ele>0.9</ele></trkpt><trkpt lat="43.531632" lon="3.924949"><ele>0.9</ele></trkpt><trkpt lat="43.531585" lon="3.925108"><ele>0.9</ele></trkpt><trkpt lat="43.53159" lon="3.925258"><ele>0.9</ele></trkpt><trkpt lat="43.531606" lon="3.925292"><ele>0.8</ele></trkpt><trkpt lat="43.531873" lon="3.925553"><ele>0.8</ele></trkpt><trkpt lat="43.531911" lon="3.925621"><ele>0.8</ele></trkpt><trkpt lat="43.531946" lon="3.925738"><ele>0.8</ele></trkpt><trkpt lat="43.531968" lon="3.925917"><ele>1</ele></trkpt><trkpt lat="43.532004" lon="3.926108"><ele>1</ele></trkpt><trkpt lat="43.53208" lon="3.926185"><ele>1</ele></trkpt><trkpt lat="43.532053" lon="3.92635"><ele>1</ele></trkpt><trkpt lat="43.532106" lon="3.926446"><ele>1</ele></trkpt><trkpt lat="43.532162" lon="3.926532"><ele>1</ele></trkpt><trkpt lat="43.532232" lon="3.92662"><ele>0.9</ele></trkpt><trkpt lat="43.532354" lon="3.926647"><ele>0.8</ele></trkpt><trkpt lat="43.532473" lon="3.926649"><ele>0.8</ele></trkpt><trkpt lat="43.532634" lon="3.926561"><ele>0.7</ele></trkpt><trkpt lat="43.532712" lon="3.92655"><ele>0.6</ele></trkpt><trkpt lat="43.532849" lon="3.926555"><ele>0.6</ele></trkpt><trkpt lat="43.533006" lon="3.926619"><ele>0.5</ele></trkpt><trkpt lat="43.533133" lon="3.926725"><ele>0.5</ele></trkpt><trkpt lat="43.53329" lon="3.926911"><ele>0.5</ele></trkpt><trkpt lat="43.533441" lon="3.927035"><ele>0.5</ele></trkpt><trkpt lat="43.533788" lon="3.927478"><ele>0.3</ele></trkpt><trkpt lat="43.533815" lon="3.927539"><ele>0.3</ele></trkpt><trkpt lat="43.533791" lon="3.927693"><ele>0.4</ele></trkpt><trkpt lat="43.533819" lon="3.927724"><ele>0</ele></trkpt><trkpt lat="43.533841" lon="3.927749"><ele>0</ele></trkpt><trkpt lat="43.533953" lon="3.927784"><ele>0</ele></trkpt><trkpt lat="43.534015" lon="3.927843"><ele>0</ele></trkpt><trkpt lat="43.534116" lon="3.928059"><ele>0.2</ele></trkpt><trkpt lat="43.534476" lon="3.928728"><ele>0.3</ele></trkpt><trkpt lat="43.534587" lon="3.928901"><ele>0.3</ele></trkpt><trkpt lat="43.534807" lon="3.92945"><ele>0.6</ele></trkpt><trkpt lat="43.535144" lon="3.930546"><ele>1</ele></trkpt><trkpt lat="43.535182" lon="3.930657"><ele>0.8</ele></trkpt><trkpt lat="43.535267" lon="3.930798"><ele>0.6</ele></trkpt><trkpt lat="43.535427" lon="3.931596"><ele>0.4</ele></trkpt><trkpt lat="43.535546" lon="3.93254"><ele>0.2</ele></trkpt><trkpt lat="43.535589" lon="3.933047"><ele>0.1</ele></trkpt><trkpt lat="43.535539" lon="3.934446"><ele>0</ele></trkpt><trkpt lat="43.535435" lon="3.935315"><ele>0</ele></trkpt><trkpt lat="43.535375" lon="3.935655"><ele>0</ele></trkpt><trkpt lat="43.535124" lon="3.936682"><ele>0.6</ele></trkpt><trkpt lat="43.535025" lon="3.936983"><ele>0.7</ele></trkpt><trkpt lat="43.534839" lon="3.937758"><ele>0.9</ele></trkpt><trkpt lat="43.53479" lon="3.93788"><ele>0.9</ele></trkpt><trkpt lat="43.534728" lon="3.937953"><ele>0.9</ele></trkpt><trkpt lat="43.534615" lon="3.937973"><ele>0.9</ele></trkpt><trkpt lat="43.534552" lon="3.938017"><ele>0.9</ele></trkpt><trkpt lat="43.53447" lon="3.938123"><ele>0.9</ele></trkpt><trkpt lat="43.534399" lon="3.938271"><ele>1</ele></trkpt><trkpt lat="43.534398" lon="3.938332"><ele>1</ele></trkpt><trkpt lat="43.534405" lon="3.938454"><ele>1</ele></trkpt><trkpt lat="43.534422" lon="3.938519"><ele>1.1</ele></trkpt><trkpt lat="43.534485" lon="3.938558"><ele>1.2</ele></trkpt><trkpt lat="43.534631" lon="3.938729"><ele>1.3</ele></trkpt><trkpt lat="43.53467" lon="3.938886"><ele>1.3</ele></trkpt><trkpt lat="43.534639" lon="3.939211"><ele>1.3</ele></trkpt><trkpt lat="43.53461" lon="3.940029"><ele>1.3</ele></trkpt><trkpt lat="43.534645" lon="3.941122"><ele>0.7</ele></trkpt><trkpt lat="43.534689" lon="3.941656"><ele>0.4</ele></trkpt><trkpt lat="43.534788" lon="3.942489"><ele>0.2</ele></trkpt><trkpt lat="43.534952" lon="3.943429"><ele>0.1</ele></trkpt><trkpt lat="43.535245" lon="3.944366"><ele>0.1</ele></trkpt><trkpt lat="43.535437" lon="3.944937"><ele>0.1</ele></trkpt><trkpt lat="43.537241" lon="3.949391"><ele>0</ele></trkpt><trkpt lat="43.537364" lon="3.949692"><ele>0</ele></trkpt><trkpt lat="43.537491" lon="3.949897"><ele>0</ele></trkpt><trkpt lat="43.538016" lon="3.951291"><ele>0</ele></trkpt><trkpt lat="43.53855" lon="3.952644"><ele>0</ele></trkpt><trkpt lat="43.540913" lon="3.958366"><ele>0</ele></trkpt><trkpt lat="43.541949" lon="3.961095"><ele>0</ele></trkpt><trkpt lat="43.542355" lon="3.962249"><ele>0</ele></trkpt><trkpt lat="43.542851" lon="3.963794"><ele>0</ele></trkpt><trkpt lat="43.543257" lon="3.965113"><ele>0.2</ele></trkpt><trkpt lat="43.543448" lon="3.965776"><ele>0.2</ele></trkpt><trkpt lat="43.54346" lon="3.965946"><ele>0.2</ele></trkpt><trkpt lat="43.543434" lon="3.966036"><ele>0.2</ele></trkpt><trkpt lat="43.543432" lon="3.966103"><ele>0.2</ele></trkpt><trkpt lat="43.543537" lon="3.966493"><ele>0.2</ele></trkpt><trkpt lat="43.543561" lon="3.966541"><ele>0.2</ele></trkpt><trkpt lat="43.543667" lon="3.96662"><ele>0.1</ele></trkpt><trkpt lat="43.543699" lon="3.96669"><ele>0.1</ele></trkpt><trkpt lat="43.543884" lon="3.967396"><ele>0.1</ele></trkpt><trkpt lat="43.544017" lon="3.968003"><ele>0</ele></trkpt><trkpt lat="43.544009" lon="3.968048"><ele>0.1</ele></trkpt><trkpt lat="43.543914" lon="3.96823"><ele>0.1</ele></trkpt><trkpt lat="43.543877" lon="3.968356"><ele>0.1</ele></trkpt><trkpt lat="43.543837" lon="3.968414"><ele>0</ele></trkpt><trkpt lat="43.543879" lon="3.96849"><ele>0</ele></trkpt><trkpt lat="43.543894" lon="3.968531"><ele>0</ele></trkpt><trkpt lat="43.543886" lon="3.968585"><ele>0</ele></trkpt><trkpt lat="43.543881" lon="3.968679"><ele>1</ele></trkpt><trkpt lat="43.543993" lon="3.968704"><ele>1</ele></trkpt><trkpt lat="43.544163" lon="3.96879"><ele>1</ele></trkpt><trkpt lat="43.544318" lon="3.968925"><ele>1</ele></trkpt><trkpt lat="43.544385" lon="3.969018"><ele>1</ele></trkpt><trkpt lat="43.544788" lon="3.969854"><ele>1.1</ele></trkpt><trkpt lat="43.545071" lon="3.970298"><ele>1.1</ele></trkpt><trkpt lat="43.545429" lon="3.970736"><ele>2</ele></trkpt><trkpt lat="43.545356" lon="3.970928"><ele>2</ele></trkpt><trkpt lat="43.545065" lon="3.971867"><ele>2</ele></trkpt><trkpt lat="43.545124" lon="3.971928"><ele>2</ele></trkpt><trkpt lat="43.54525" lon="3.971995"><ele>2</ele></trkpt><trkpt lat="43.545331" lon="3.972038"><ele>2</ele></trkpt><trkpt lat="43.545403" lon="3.972237"><ele>2</ele></trkpt><trkpt lat="43.545371" lon="3.972257"><ele>2</ele></trkpt><trkpt lat="43.545364" lon="3.972238"><ele>2</ele></trkpt><trkpt lat="43.545316" lon="3.972075"><ele>2</ele></trkpt><trkpt lat="43.545278" lon="3.972095"><ele>2</ele></trkpt><trkpt lat="43.54538" lon="3.972412"><ele>2</ele></trkpt><trkpt lat="43.545474" lon="3.972707"><ele>2</ele></trkpt><trkpt lat="43.545438" lon="3.972728"><ele>2</ele></trkpt><trkpt lat="43.545383" lon="3.972561"><ele>2</ele></trkpt><trkpt lat="43.545379" lon="3.972549"><ele>2</ele></trkpt><trkpt lat="43.545352" lon="3.972562"><ele>2</ele></trkpt><trkpt lat="43.54539" lon="3.972678"><ele>2.3</ele></trkpt><trkpt lat="43.545363" lon="3.97279"><ele>3</ele></trkpt><trkpt lat="43.545419" lon="3.972908"><ele>3</ele></trkpt><trkpt lat="43.545567" lon="3.972894"><ele>3</ele></trkpt><trkpt lat="43.545669" lon="3.973206"><ele>3.8</ele></trkpt><trkpt lat="43.545732" lon="3.973242"><ele>4</ele></trkpt><trkpt lat="43.545802" lon="3.973387"><ele>5</ele></trkpt><trkpt lat="43.546135" lon="3.973198"><ele>5</ele></trkpt><trkpt lat="43.546507" lon="3.973409"><ele>5</ele></trkpt><trkpt lat="43.546536" lon="3.973424"><ele>5</ele></trkpt><trkpt lat="43.547126" lon="3.973749"><ele>5</ele></trkpt><trkpt lat="43.547176" lon="3.973777"><ele>5</ele></trkpt><trkpt lat="43.547271" lon="3.97382"><ele>5</ele></trkpt><trkpt lat="43.547503" lon="3.973946"><ele>5</ele></trkpt><trkpt lat="43.54761" lon="3.973926"><ele>5</ele></trkpt><trkpt lat="43.547716" lon="3.974245"><ele>5</ele></trkpt><trkpt lat="43.547815" lon="3.97454"><ele>2</ele></trkpt><trkpt lat="43.54793" lon="3.974898"><ele>3</ele></trkpt><trkpt lat="43.548079" lon="3.975361"><ele>3</ele></trkpt><trkpt lat="43.54811" lon="3.975458"><ele>3</ele></trkpt><trkpt lat="43.548314" lon="3.976067"><ele>3</ele></trkpt><trkpt lat="43.548411" lon="3.976377"><ele>3</ele></trkpt><trkpt lat="43.548523" lon="3.9767"><ele>3</ele></trkpt><trkpt lat="43.548602" lon="3.976954"><ele>3</ele></trkpt><trkpt lat="43.548633" lon="3.977082"><ele>3</ele></trkpt><trkpt lat="43.548668" lon="3.977319"><ele>3</ele></trkpt><trkpt lat="43.548678" lon="3.977869"><ele>3</ele></trkpt><trkpt lat="43.548654" lon="3.978064"><ele>3</ele></trkpt><trkpt lat="43.54847" lon="3.978721"><ele>3</ele></trkpt><trkpt lat="43.548373" lon="3.979049"><ele>3</ele></trkpt><trkpt lat="43.548304" lon="3.979282"><ele>3</ele></trkpt><trkpt lat="43.548209" lon="3.979585"><ele>3</ele></trkpt><trkpt lat="43.548181" lon="3.97966"><ele>3</ele></trkpt><trkpt lat="43.548147" lon="3.97976"><ele>3</ele></trkpt><trkpt lat="43.547876" lon="3.980711"><ele>3</ele></trkpt><trkpt lat="43.547771" lon="3.981033"><ele>5</ele></trkpt><trkpt lat="43.547635" lon="3.980965"><ele>5</ele></trkpt><trkpt lat="43.547479" lon="3.980887"><ele>5</ele></trkpt><trkpt lat="43.547396" lon="3.981141"><ele>3</ele></trkpt><trkpt lat="43.547374" lon="3.981222"><ele>3</ele></trkpt><trkpt lat="43.547335" lon="3.98111"><ele>5</ele></trkpt><trkpt lat="43.547294" lon="3.981071"><ele>4.3</ele></trkpt><trkpt lat="43.547198" lon="3.981116"><ele>3</ele></trkpt><trkpt lat="43.547288" lon="3.981398"><ele>3</ele></trkpt><trkpt lat="43.547235" lon="3.981428"><ele>3</ele></trkpt><trkpt lat="43.547383" lon="3.981895"><ele>3</ele></trkpt><trkpt lat="43.547556" lon="3.982425"><ele>3</ele></trkpt><trkpt lat="43.547714" lon="3.982914"><ele>3</ele></trkpt><trkpt lat="43.547728" lon="3.983023"><ele>3</ele></trkpt><trkpt lat="43.547741" lon="3.983056"><ele>3.4</ele></trkpt><trkpt lat="43.547802" lon="3.983056"><ele>3.5</ele></trkpt><trkpt lat="43.547848" lon="3.983083"><ele>3.4</ele></trkpt><trkpt lat="43.547949" lon="3.983287"><ele>3.2</ele></trkpt><trkpt lat="43.548098" lon="3.983495"><ele>3</ele></trkpt><trkpt lat="43.548161" lon="3.983582"><ele>3</ele></trkpt><trkpt lat="43.548186" lon="3.983673"><ele>3</ele></trkpt><trkpt lat="43.548412" lon="3.983925"><ele>3</ele></trkpt><trkpt lat="43.548517" lon="3.98407"><ele>3</ele></trkpt><trkpt lat="43.548691" lon="3.984367"><ele>3</ele></trkpt><trkpt lat="43.548811" lon="3.984693"><ele>3</ele></trkpt><trkpt lat="43.548983" lon="3.985247"><ele>3</ele></trkpt><trkpt lat="43.549124" lon="3.985677"><ele>3</ele></trkpt><trkpt lat="43.549306" lon="3.986251"><ele>3</ele></trkpt><trkpt lat="43.549454" lon="3.986719"><ele>3</ele></trkpt><trkpt lat="43.549586" lon="3.987133"><ele>3</ele></trkpt><trkpt lat="43.549722" lon="3.987578"><ele>3</ele></trkpt><trkpt lat="43.549385" lon="3.987792"><ele>3</ele></trkpt><trkpt lat="43.548937" lon="3.988059"><ele>3</ele></trkpt><trkpt lat="43.548638" lon="3.988241"><ele>3</ele></trkpt><trkpt lat="43.548344" lon="3.988417"><ele>3</ele></trkpt><trkpt lat="43.548088" lon="3.988575"><ele>3</ele></trkpt><trkpt lat="43.548086" lon="3.988631"><ele>3</ele></trkpt><trkpt lat="43.548081" lon="3.98869"><ele>3</ele></trkpt><trkpt lat="43.548059" lon="3.988712"><ele>3</ele></trkpt><trkpt lat="43.548038" lon="3.988736"><ele>3.3</ele></trkpt><trkpt lat="43.548272" lon="3.989607"><ele>5</ele></trkpt><trkpt lat="43.548547" lon="3.990547"><ele>5</ele></trkpt><trkpt lat="43.54857" lon="3.990592"><ele>5</ele></trkpt><trkpt lat="43.548791" lon="3.991488"><ele>5</ele></trkpt><trkpt lat="43.548868" lon="3.991773"><ele>5</ele></trkpt><trkpt lat="43.549042" lon="3.992425"><ele>5</ele></trkpt><trkpt lat="43.549302" lon="3.993375"><ele>5</ele></trkpt><trkpt lat="43.549411" lon="3.993776"><ele>4</ele></trkpt><trkpt lat="43.549555" lon="3.994311"><ele>4</ele></trkpt><trkpt lat="43.549226" lon="3.994484"><ele>4</ele></trkpt><trkpt lat="43.549448" lon="3.995313"><ele>4</ele></trkpt><trkpt lat="43.549419" lon="3.995373"><ele>4</ele></trkpt><trkpt lat="43.549427" lon="3.995456"><ele>4</ele></trkpt><trkpt lat="43.549469" lon="3.995514"><ele>4</ele></trkpt><trkpt lat="43.549514" lon="3.99552"><ele>4</ele></trkpt><trkpt lat="43.549504" lon="3.995735"><ele>2.8</ele></trkpt><trkpt lat="43.549936" lon="3.997329"><ele>3</ele></trkpt><trkpt lat="43.550448" lon="3.999205"><ele>3</ele></trkpt><trkpt lat="43.550909" lon="4.000868"><ele>2</ele></trkpt><trkpt lat="43.550932" lon="4.000954"><ele>2</ele></trkpt><trkpt lat="43.550999" lon="4.001207"><ele>2</ele></trkpt><trkpt lat="43.551028" lon="4.001307"><ele>2</ele></trkpt><trkpt lat="43.551469" lon="4.002963"><ele>3</ele></trkpt><trkpt lat="43.55198" lon="4.004857"><ele>3</ele></trkpt><trkpt lat="43.552423" lon="4.006489"><ele>3</ele></trkpt><trkpt lat="43.552706" lon="4.007489"><ele>3</ele></trkpt><trkpt lat="43.552773" lon="4.007782"><ele>3</ele></trkpt><trkpt lat="43.553199" lon="4.009486"><ele>1.7</ele></trkpt><trkpt lat="43.553244" lon="4.009589"><ele>1</ele></trkpt><trkpt lat="43.553418" lon="4.00969"><ele>1</ele></trkpt><trkpt lat="43.55353" lon="4.009685"><ele>1</ele></trkpt><trkpt lat="43.553595" lon="4.009647"><ele>1</ele></trkpt><trkpt lat="43.553797" lon="4.009463"><ele>1</ele></trkpt><trkpt lat="43.553968" lon="4.009385"><ele>1</ele></trkpt><trkpt lat="43.554087" lon="4.009371"><ele>1</ele></trkpt><trkpt lat="43.55419" lon="4.00939"><ele>1</ele></trkpt><trkpt lat="43.554281" lon="4.009483"><ele>1</ele></trkpt><trkpt lat="43.554351" lon="4.00962"><ele>1</ele></trkpt><trkpt lat="43.55447" lon="4.009969"><ele>1</ele></trkpt><trkpt lat="43.554579" lon="4.010355"><ele>1.8</ele></trkpt><trkpt lat="43.554848" lon="4.010929"><ele>1.8</ele></trkpt><trkpt lat="43.555079" lon="4.01176"><ele>2</ele></trkpt><trkpt lat="43.555201" lon="4.012191"><ele>2</ele></trkpt><trkpt lat="43.555248" lon="4.012539"><ele>2</ele></trkpt><trkpt lat="43.555264" lon="4.012955"><ele>2</ele></trkpt><trkpt lat="43.55531" lon="4.01318"><ele>2</ele></trkpt><trkpt lat="43.555688" lon="4.014236"><ele>2</ele></trkpt><trkpt lat="43.556034" lon="4.014972"><ele>1.8</ele></trkpt><trkpt lat="43.556092" lon="4.015193"><ele>1.6</ele></trkpt><trkpt lat="43.556108" lon="4.01541"><ele>1.5</ele></trkpt><trkpt lat="43.556106" lon="4.01595"><ele>1.4</ele></trkpt><trkpt lat="43.556133" lon="4.016114"><ele>1.3</ele></trkpt><trkpt lat="43.556422" lon="4.016839"><ele>1.3</ele></trkpt><trkpt lat="43.556474" lon="4.017057"><ele>1</ele></trkpt><trkpt lat="43.556484" lon="4.017832"><ele>1</ele></trkpt><trkpt lat="43.556605" lon="4.018796"><ele>1</ele></trkpt><trkpt lat="43.556709" lon="4.019207"><ele>1</ele></trkpt><trkpt lat="43.556775" lon="4.019556"><ele>1</ele></trkpt><trkpt lat="43.55687" lon="4.020055"><ele>1.3</ele></trkpt><trkpt lat="43.556972" lon="4.020415"><ele>1.5</ele></trkpt><trkpt lat="43.556996" lon="4.020612"><ele>1.5</ele></trkpt><trkpt lat="43.556994" lon="4.021383"><ele>1.6</ele></trkpt><trkpt lat="43.557037" lon="4.021767"><ele>1.7</ele></trkpt><trkpt lat="43.557096" lon="4.02208"><ele>2</ele></trkpt><trkpt lat="43.557162" lon="4.022465"><ele>2</ele></trkpt><trkpt lat="43.557234" lon="4.022747"><ele>2</ele></trkpt><trkpt lat="43.557314" lon="4.022972"><ele>2</ele></trkpt><trkpt lat="43.557614" lon="4.023685"><ele>2</ele></trkpt><trkpt lat="43.557652" lon="4.023925"><ele>2</ele></trkpt><trkpt lat="43.557661" lon="4.024218"><ele>2</ele></trkpt><trkpt lat="43.557702" lon="4.024638"><ele>2</ele></trkpt><trkpt lat="43.557973" lon="4.02543"><ele>2.2</ele></trkpt><trkpt lat="43.558014" lon="4.025608"><ele>2.2</ele></trkpt><trkpt lat="43.558028" lon="4.025827"><ele>2.2</ele></trkpt><trkpt lat="43.557882" lon="4.026831"><ele>2.4</ele></trkpt><trkpt lat="43.557908" lon="4.027109"><ele>3</ele></trkpt><trkpt lat="43.558096" lon="4.027733"><ele>2.8</ele></trkpt><trkpt lat="43.558141" lon="4.028248"><ele>2.8</ele></trkpt><trkpt lat="43.558284" lon="4.029045"><ele>3</ele></trkpt><trkpt lat="43.558411" lon="4.029437"><ele>3</ele></trkpt><trkpt lat="43.558431" lon="4.029546"><ele>3</ele></trkpt><trkpt lat="43.558458" lon="4.029897"><ele>3.1</ele></trkpt><trkpt lat="43.558478" lon="4.030631"><ele>3.3</ele></trkpt><trkpt lat="43.558475" lon="4.030779"><ele>3.4</ele></trkpt><trkpt lat="43.558354" lon="4.031636"><ele>3.8</ele></trkpt><trkpt lat="43.558353" lon="4.03186"><ele>3.8</ele></trkpt><trkpt lat="43.558379" lon="4.032295"><ele>3.8</ele></trkpt><trkpt lat="43.558308" lon="4.032543"><ele>3.8</ele></trkpt><trkpt lat="43.558323" lon="4.032703"><ele>3.9</ele></trkpt><trkpt lat="43.558289" lon="4.032847"><ele>4</ele></trkpt><trkpt lat="43.558261" lon="4.032984"><ele>2.5</ele></trkpt><trkpt lat="43.558193" lon="4.033116"><ele>2.3</ele></trkpt><trkpt lat="43.558113" lon="4.033219"><ele>2.4</ele></trkpt><trkpt lat="43.557479" lon="4.033824"><ele>2.4</ele></trkpt><trkpt lat="43.557346" lon="4.033933"><ele>2.5</ele></trkpt><trkpt lat="43.557199" lon="4.033983"><ele>2</ele></trkpt><trkpt lat="43.556873" lon="4.034045"><ele>2</ele></trkpt><trkpt lat="43.556885" lon="4.03438"><ele>2</ele></trkpt><trkpt lat="43.556961" lon="4.035216"><ele>2</ele></trkpt><trkpt lat="43.556992" lon="4.035674"><ele>3</ele></trkpt><trkpt lat="43.557091" lon="4.037033"><ele>3</ele></trkpt><trkpt lat="43.557144" lon="4.0378"><ele>4</ele></trkpt><trkpt lat="43.557297" lon="4.040026"><ele>2</ele></trkpt><trkpt lat="43.557439" lon="4.042129"><ele>2</ele></trkpt><trkpt lat="43.557568" lon="4.043834"><ele>1</ele></trkpt><trkpt lat="43.557632" lon="4.044696"><ele>1</ele></trkpt><trkpt lat="43.557786" lon="4.046651"><ele>1</ele></trkpt><trkpt lat="43.557936" lon="4.048381"><ele>2</ele></trkpt><trkpt lat="43.558041" lon="4.049625"><ele>2</ele></trkpt><trkpt lat="43.558099" lon="4.05025"><ele>1</ele></trkpt><trkpt lat="43.558158" lon="4.050927"><ele>1</ele></trkpt><trkpt lat="43.558176" lon="4.051138"><ele>1</ele></trkpt><trkpt lat="43.558193" lon="4.05133"><ele>1</ele></trkpt><trkpt lat="43.55825" lon="4.052302"><ele>1</ele></trkpt><trkpt lat="43.558267" lon="4.053003"><ele>1</ele></trkpt><trkpt lat="43.558298" lon="4.054814"><ele>2</ele></trkpt><trkpt lat="43.558316" lon="4.055787"><ele>2</ele></trkpt><trkpt lat="43.55833" lon="4.056539"><ele>3</ele></trkpt><trkpt lat="43.558336" lon="4.057182"><ele>3</ele></trkpt><trkpt lat="43.558331" lon="4.057912"><ele>3</ele></trkpt><trkpt lat="43.558376" lon="4.058173"><ele>3</ele></trkpt><trkpt lat="43.558508" lon="4.05843"><ele>3</ele></trkpt><trkpt lat="43.55854" lon="4.058454"><ele>3</ele></trkpt><trkpt lat="43.558589" lon="4.058482"><ele>3</ele></trkpt><trkpt lat="43.558773" lon="4.058458"><ele>3</ele></trkpt><trkpt lat="43.558874" lon="4.05857"><ele>3</ele></trkpt><trkpt lat="43.558903" lon="4.058567"><ele>3</ele></trkpt><trkpt lat="43.558928" lon="4.058569"><ele>3</ele></trkpt><trkpt lat="43.558972" lon="4.05851"><ele>3</ele></trkpt><trkpt lat="43.558982" lon="4.058408"><ele>3</ele></trkpt><trkpt lat="43.559036" lon="4.058271"><ele>3</ele></trkpt><trkpt lat="43.559124" lon="4.058124"><ele>3</ele></trkpt><trkpt lat="43.559182" lon="4.05807"><ele>3</ele></trkpt><trkpt lat="43.559271" lon="4.05803"><ele>3</ele></trkpt><trkpt lat="43.559491" lon="4.057984"><ele>3</ele></trkpt><trkpt lat="43.559727" lon="4.057973"><ele>3</ele></trkpt><trkpt lat="43.559765" lon="4.057978"><ele>3.3</ele></trkpt><trkpt lat="43.559821" lon="4.058043"><ele>3.3</ele></trkpt><trkpt lat="43.560014" lon="4.05842"><ele>3.4</ele></trkpt><trkpt lat="43.560075" lon="4.058482"><ele>3.4</ele></trkpt><trkpt lat="43.560545" lon="4.058631"><ele>3.5</ele></trkpt><trkpt lat="43.560675" lon="4.058715"><ele>4</ele></trkpt><trkpt lat="43.560664" lon="4.058948"><ele>4</ele></trkpt><trkpt lat="43.560644" lon="4.059075"><ele>4</ele></trkpt><trkpt lat="43.56055" lon="4.059352"><ele>4</ele></trkpt><trkpt lat="43.560545" lon="4.05944"><ele>4</ele></trkpt><trkpt lat="43.560587" lon="4.059669"><ele>4</ele></trkpt><trkpt lat="43.560587" lon="4.05975"><ele>4</ele></trkpt><trkpt lat="43.560584" lon="4.059844"><ele>4</ele></trkpt><trkpt lat="43.560579" lon="4.059989"><ele>4</ele></trkpt><trkpt lat="43.56108" lon="4.059837"><ele>4</ele></trkpt><trkpt lat="43.561156" lon="4.059827"><ele>4</ele></trkpt><trkpt lat="43.561242" lon="4.059844"><ele>4</ele></trkpt><trkpt lat="43.561275" lon="4.059869"><ele>4</ele></trkpt><trkpt lat="43.561352" lon="4.060256"><ele>5.4</ele></trkpt><trkpt lat="43.561393" lon="4.060374"><ele>5.5</ele></trkpt><trkpt lat="43.561541" lon="4.060652"><ele>5.4</ele></trkpt><trkpt lat="43.561641" lon="4.060888"><ele>6</ele></trkpt><trkpt lat="43.561702" lon="4.060853"><ele>6</ele></trkpt><trkpt lat="43.561744" lon="4.060949"><ele>6</ele></trkpt><trkpt lat="43.561824" lon="4.061049"><ele>6</ele></trkpt><trkpt lat="43.562038" lon="4.061245"><ele>6</ele></trkpt><trkpt lat="43.562124" lon="4.061395"><ele>6</ele></trkpt><trkpt lat="43.562108" lon="4.061714"><ele>6</ele></trkpt><trkpt lat="43.561997" lon="4.062986"><ele>6</ele></trkpt><trkpt lat="43.561987" lon="4.063002"><ele>6</ele></trkpt><trkpt lat="43.561994" lon="4.063128"><ele>6</ele></trkpt><trkpt lat="43.561991" lon="4.063245"><ele>6</ele></trkpt><trkpt lat="43.561987" lon="4.063351"><ele>6</ele></trkpt><trkpt lat="43.561988" lon="4.06344"><ele>6</ele></trkpt><trkpt lat="43.561872" lon="4.065113"><ele>7</ele></trkpt><trkpt lat="43.561864" lon="4.065225"><ele>7</ele></trkpt><trkpt lat="43.561852" lon="4.065403"><ele>7</ele></trkpt><trkpt lat="43.561846" lon="4.065496"><ele>7</ele></trkpt><trkpt lat="43.561744" lon="4.066993"><ele>7</ele></trkpt><trkpt lat="43.561668" lon="4.06799"><ele>7</ele></trkpt><trkpt lat="43.561661" lon="4.068041"><ele>7</ele></trkpt><trkpt lat="43.561608" lon="4.068095"><ele>7</ele></trkpt><trkpt lat="43.561598" lon="4.068159"><ele>7</ele></trkpt><trkpt lat="43.561549" lon="4.068264"><ele>7</ele></trkpt><trkpt lat="43.561109" lon="4.068904"><ele>7</ele></trkpt><trkpt lat="43.561227" lon="4.069059"><ele>7</ele></trkpt><trkpt lat="43.561182" lon="4.069218"><ele>7</ele></trkpt><trkpt lat="43.561122" lon="4.069293"><ele>7</ele></trkpt><trkpt lat="43.560906" lon="4.069601"><ele>7</ele></trkpt><trkpt lat="43.560844" lon="4.069652"><ele>7</ele></trkpt><trkpt lat="43.560259" lon="4.070535"><ele>7</ele></trkpt><trkpt lat="43.560207" lon="4.070812"><ele>7</ele></trkpt><trkpt lat="43.560705" lon="4.072062"><ele>6</ele></trkpt><trkpt lat="43.560755" lon="4.072174"><ele>6</ele></trkpt><trkpt lat="43.56072" lon="4.072251"><ele>6</ele></trkpt><trkpt lat="43.560638" lon="4.072317"><ele>6</ele></trkpt><trkpt lat="43.56048" lon="4.072428"><ele>6</ele></trkpt><trkpt lat="43.56028" lon="4.072565"><ele>6</ele></trkpt><trkpt lat="43.560293" lon="4.07263"><ele>5.7</ele></trkpt><trkpt lat="43.560286" lon="4.072932"><ele>5</ele></trkpt><trkpt lat="43.560262" lon="4.073705"><ele>6</ele></trkpt><trkpt lat="43.560257" lon="4.073782"><ele>6</ele></trkpt><trkpt lat="43.560277" lon="4.073893"><ele>6</ele></trkpt><trkpt lat="43.560452" lon="4.074306"><ele>5</ele></trkpt><trkpt lat="43.560554" lon="4.074545"><ele>5</ele></trkpt><trkpt lat="43.560579" lon="4.074709"><ele>5</ele></trkpt><trkpt lat="43.560546" lon="4.075138"><ele>5</ele></trkpt><trkpt lat="43.560448" lon="4.076487"><ele>5</ele></trkpt><trkpt lat="43.560465" lon="4.076604"><ele>5.7</ele></trkpt><trkpt lat="43.560708" lon="4.077171"><ele>7</ele></trkpt><trkpt lat="43.560761" lon="4.077292"><ele>7</ele></trkpt><trkpt lat="43.560603" lon="4.07742"><ele>7</ele></trkpt><trkpt lat="43.560594" lon="4.077427"><ele>7</ele></trkpt><trkpt lat="43.560094" lon="4.077831"><ele>4</ele></trkpt><trkpt lat="43.559527" lon="4.07829"><ele>4</ele></trkpt><trkpt lat="43.559434" lon="4.078366"><ele>4</ele></trkpt><trkpt lat="43.559477" lon="4.078399"><ele>4</ele></trkpt><trkpt lat="43.559693" lon="4.078932"><ele>4</ele></trkpt><trkpt lat="43.560034" lon="4.079772"><ele>2</ele></trkpt><trkpt lat="43.560124" lon="4.079994"><ele>2</ele></trkpt><trkpt lat="43.560198" lon="4.080151"><ele>2</ele></trkpt><trkpt lat="43.560224" lon="4.080216"><ele>2</ele></trkpt><trkpt lat="43.560229" lon="4.08023"><ele>2</ele></trkpt><trkpt lat="43.560641" lon="4.081209"><ele>7</ele></trkpt><trkpt lat="43.560763" lon="4.081502"><ele>7</ele></trkpt><trkpt lat="43.560867" lon="4.081743"><ele>7</ele></trkpt><trkpt lat="43.560969" lon="4.082029"><ele>7</ele></trkpt><trkpt lat="43.56098" lon="4.082072"><ele>7</ele></trkpt><trkpt lat="43.561287" lon="4.082867"><ele>7</ele></trkpt><trkpt lat="43.561864" lon="4.084274"><ele>8</ele></trkpt><trkpt lat="43.561908" lon="4.084383"><ele>8</ele></trkpt><trkpt lat="43.561981" lon="4.084562"><ele>8</ele></trkpt><trkpt lat="43.562123" lon="4.084908"><ele>8</ele></trkpt><trkpt lat="43.5623" lon="4.08534"><ele>7</ele></trkpt><trkpt lat="43.562518" lon="4.085874"><ele>6</ele></trkpt><trkpt lat="43.562683" lon="4.086277"><ele>6</ele></trkpt><trkpt lat="43.56277" lon="4.086489"><ele>6</ele></trkpt><trkpt lat="43.562453" lon="4.086742"><ele>6</ele></trkpt><trkpt lat="43.562432" lon="4.086816"><ele>6</ele></trkpt><trkpt lat="43.562019" lon="4.087142"><ele>7</ele></trkpt><trkpt lat="43.561899" lon="4.087238"><ele>7</ele></trkpt><trkpt lat="43.561694" lon="4.087398"><ele>8</ele></trkpt><trkpt lat="43.561228" lon="4.087768"><ele>8</ele></trkpt><trkpt lat="43.560956" lon="4.087985"><ele>8</ele></trkpt><trkpt lat="43.56085" lon="4.088069"><ele>8</ele></trkpt><trkpt lat="43.560905" lon="4.088203"><ele>8</ele></trkpt><trkpt lat="43.561221" lon="4.088978"><ele>8</ele></trkpt><trkpt lat="43.561246" lon="4.089108"><ele>8</ele></trkpt><trkpt lat="43.561536" lon="4.089821"><ele>8</ele></trkpt><trkpt lat="43.561645" lon="4.090099"><ele>8</ele></trkpt><trkpt lat="43.561845" lon="4.090595"><ele>8</ele></trkpt><trkpt lat="43.562089" lon="4.090552"><ele>8</ele></trkpt><trkpt lat="43.562172" lon="4.090794"><ele>8</ele></trkpt><trkpt lat="43.562172" lon="4.090844"><ele>8</ele></trkpt><trkpt lat="43.562171" lon="4.09092"><ele>8</ele></trkpt><trkpt lat="43.562212" lon="4.091196"><ele>8</ele></trkpt><trkpt lat="43.562231" lon="4.091324"><ele>6.5</ele></trkpt><trkpt lat="43.562467" lon="4.091937"><ele>5</ele></trkpt><trkpt lat="43.562552" lon="4.092438"><ele>5</ele></trkpt><trkpt lat="43.562517" lon="4.092793"><ele>5.5</ele></trkpt><trkpt lat="43.562613" lon="4.093179"><ele>5.7</ele></trkpt><trkpt lat="43.562693" lon="4.093612"><ele>5.6</ele></trkpt><trkpt lat="43.562726" lon="4.093941"><ele>5.4</ele></trkpt><trkpt lat="43.562708" lon="4.094399"><ele>5.1</ele></trkpt><trkpt lat="43.562636" lon="4.094656"><ele>5</ele></trkpt><trkpt lat="43.562539" lon="4.094939"><ele>4.9</ele></trkpt><trkpt lat="43.561988" lon="4.095478"><ele>4.7</ele></trkpt><trkpt lat="43.561857" lon="4.09564"><ele>4.8</ele></trkpt><trkpt lat="43.561513" lon="4.095822"><ele>5</ele></trkpt><trkpt lat="43.560941" lon="4.096257"><ele>5</ele></trkpt><trkpt lat="43.560913" lon="4.096419"><ele>5</ele></trkpt><trkpt lat="43.560801" lon="4.096501"><ele>5</ele></trkpt><trkpt lat="43.560715" lon="4.096565"><ele>5</ele></trkpt><trkpt lat="43.560714" lon="4.096584"><ele>5</ele></trkpt><trkpt lat="43.560663" lon="4.096679"><ele>4.7</ele></trkpt><trkpt lat="43.560572" lon="4.096757"><ele>4.6</ele></trkpt><trkpt lat="43.560494" lon="4.096768"><ele>4.5</ele></trkpt><trkpt lat="43.560071" lon="4.097025"><ele>4.5</ele></trkpt><trkpt lat="43.559224" lon="4.097689"><ele>4</ele></trkpt><trkpt lat="43.559233" lon="4.097808"><ele>4</ele></trkpt><trkpt lat="43.55894" lon="4.098045"><ele>4</ele></trkpt><trkpt lat="43.558553" lon="4.098359"><ele>4</ele></trkpt><trkpt lat="43.558056" lon="4.098782"><ele>4.7</ele></trkpt><trkpt lat="43.55796" lon="4.098817"><ele>4.7</ele></trkpt><trkpt lat="43.557855" lon="4.098811"><ele>4.7</ele></trkpt><trkpt lat="43.557511" lon="4.099042"><ele>5</ele></trkpt><trkpt lat="43.557381" lon="4.099224"><ele>5</ele></trkpt><trkpt lat="43.557122" lon="4.099372"><ele>5</ele></trkpt><trkpt lat="43.557081" lon="4.099356"><ele>5</ele></trkpt><trkpt lat="43.557069" lon="4.099416"><ele>5</ele></trkpt><trkpt lat="43.557119" lon="4.099614"><ele>5</ele></trkpt><trkpt lat="43.557029" lon="4.099649"><ele>3.9</ele></trkpt><trkpt lat="43.556836" lon="4.099862"><ele>3.5</ele></trkpt><trkpt lat="43.556675" lon="4.100124"><ele>3.7</ele></trkpt><trkpt lat="43.556604" lon="4.100286"><ele>3</ele></trkpt><trkpt lat="43.55645" lon="4.100758"><ele>3</ele></trkpt><trkpt lat="43.556017" lon="4.102132"><ele>2</ele></trkpt><trkpt lat="43.555983" lon="4.102246"><ele>2</ele></trkpt><trkpt lat="43.555848" lon="4.102639"><ele>2</ele></trkpt><trkpt lat="43.55561" lon="4.103546"><ele>2</ele></trkpt><trkpt lat="43.554857" lon="4.107322"><ele>2</ele></trkpt><trkpt lat="43.554673" lon="4.108061"><ele>2</ele></trkpt><trkpt lat="43.554588" lon="4.108205"><ele>2</ele></trkpt><trkpt lat="43.554524" lon="4.108242"><ele>2</ele></trkpt><trkpt lat="43.554428" lon="4.108264"><ele>2</ele></trkpt><trkpt lat="43.554396" lon="4.10835"><ele>2</ele></trkpt><trkpt lat="43.554364" lon="4.108432"><ele>2</ele></trkpt><trkpt lat="43.554396" lon="4.108456"><ele>2</ele></trkpt><trkpt lat="43.554412" lon="4.108566"><ele>2</ele></trkpt><trkpt lat="43.554409" lon="4.1087"><ele>2</ele></trkpt><trkpt lat="43.554375" lon="4.108823"><ele>2</ele></trkpt><trkpt lat="43.553699" lon="4.110289"><ele>2</ele></trkpt><trkpt lat="43.553401" lon="4.111037"><ele>2</ele></trkpt><trkpt lat="43.552451" lon="4.113862"><ele>1</ele></trkpt><trkpt lat="43.551876" lon="4.11557"><ele>4</ele></trkpt><trkpt lat="43.551471" lon="4.116754"><ele>5.3</ele></trkpt><trkpt lat="43.551253" lon="4.117335"><ele>6</ele></trkpt><trkpt lat="43.551232" lon="4.117383"><ele>6</ele></trkpt><trkpt lat="43.551144" lon="4.117525"><ele>6</ele></trkpt><trkpt lat="43.551064" lon="4.117553"><ele>6</ele></trkpt><trkpt lat="43.550963" lon="4.117622"><ele>6</ele></trkpt><trkpt lat="43.550835" lon="4.117667"><ele>6</ele></trkpt><trkpt lat="43.550808" lon="4.117732"><ele>6</ele></trkpt><trkpt lat="43.550789" lon="4.117813"><ele>6</ele></trkpt><trkpt lat="43.550822" lon="4.118035"><ele>6</ele></trkpt><trkpt lat="43.55088" lon="4.118283"><ele>6</ele></trkpt><trkpt lat="43.550877" lon="4.118422"><ele>6</ele></trkpt><trkpt lat="43.550391" lon="4.120237"><ele>8</ele></trkpt><trkpt lat="43.550292" lon="4.120583"><ele>6.1</ele></trkpt><trkpt lat="43.550151" lon="4.120866"><ele>3</ele></trkpt><trkpt lat="43.550075" lon="4.121041"><ele>3</ele></trkpt><trkpt lat="43.54971" lon="4.121679"><ele>3</ele></trkpt><trkpt lat="43.549381" lon="4.122095"><ele>3</ele></trkpt><trkpt lat="43.54901" lon="4.122437"><ele>3</ele></trkpt><trkpt lat="43.548556" lon="4.122719"><ele>3</ele></trkpt><trkpt lat="43.548271" lon="4.122893"><ele>4</ele></trkpt><trkpt lat="43.547786" lon="4.123197"><ele>4</ele></trkpt><trkpt lat="43.547595" lon="4.123317"><ele>4</ele></trkpt><trkpt lat="43.547344" lon="4.123476"><ele>4</ele></trkpt><trkpt lat="43.546877" lon="4.12393"><ele>4</ele></trkpt><trkpt lat="43.546824" lon="4.123999"><ele>4</ele></trkpt><trkpt lat="43.546809" lon="4.124019"><ele>4</ele></trkpt><trkpt lat="43.546753" lon="4.124093"><ele>4</ele></trkpt><trkpt lat="43.546495" lon="4.12443"><ele>4</ele></trkpt><trkpt lat="43.546457" lon="4.124502"><ele>4</ele></trkpt><trkpt lat="43.546301" lon="4.124797"><ele>4</ele></trkpt><trkpt lat="43.545872" lon="4.125615"><ele>3</ele></trkpt><trkpt lat="43.545495" lon="4.126253"><ele>1</ele></trkpt><trkpt lat="43.54527" lon="4.126604"><ele>1</ele></trkpt><trkpt lat="43.545212" lon="4.126695"><ele>1</ele></trkpt><trkpt lat="43.54482" lon="4.127333"><ele>2</ele></trkpt><trkpt lat="43.544407" lon="4.12798"><ele>2</ele></trkpt><trkpt lat="43.543863" lon="4.128857"><ele>2</ele></trkpt><trkpt lat="43.543122" lon="4.12997"><ele>2</ele></trkpt><trkpt lat="43.54255" lon="4.13072"><ele>2</ele></trkpt><trkpt lat="43.542038" lon="4.131391"><ele>3</ele></trkpt><trkpt lat="43.541717" lon="4.131836"><ele>3</ele></trkpt><trkpt lat="43.540971" lon="4.133004"><ele>2</ele></trkpt><trkpt lat="43.540882" lon="4.13317"><ele>2</ele></trkpt><trkpt lat="43.540695" lon="4.13347"><ele>3</ele></trkpt><trkpt lat="43.540639" lon="4.133567"><ele>3</ele></trkpt><trkpt lat="43.540415" lon="4.133735"><ele>3</ele></trkpt><trkpt lat="43.540158" lon="4.133949"><ele>3</ele></trkpt><trkpt lat="43.540133" lon="4.133993"><ele>3</ele></trkpt><trkpt lat="43.540159" lon="4.134068"><ele>3</ele></trkpt><trkpt lat="43.540048" lon="4.134199"><ele>3</ele></trkpt><trkpt lat="43.53984" lon="4.135013"><ele>3</ele></trkpt><trkpt lat="43.539656" lon="4.135723"><ele>2</ele></trkpt><trkpt lat="43.539581" lon="4.135962"><ele>2.4</ele></trkpt><trkpt lat="43.539392" lon="4.136239"><ele>4</ele></trkpt><trkpt lat="43.539293" lon="4.13633"><ele>4</ele></trkpt><trkpt lat="43.539062" lon="4.136435"><ele>4</ele></trkpt><trkpt lat="43.538167" lon="4.136887"><ele>4</ele></trkpt><trkpt lat="43.537714" lon="4.137254"><ele>4</ele></trkpt><trkpt lat="43.537676" lon="4.137285"><ele>4</ele></trkpt><trkpt lat="43.537418" lon="4.137507"><ele>2</ele></trkpt><trkpt lat="43.537399" lon="4.137523"><ele>2</ele></trkpt><trkpt lat="43.537425" lon="4.137566"><ele>2</ele></trkpt><trkpt lat="43.537395" lon="4.137626"><ele>2</ele></trkpt><trkpt lat="43.53739" lon="4.137722"><ele>2</ele></trkpt><trkpt lat="43.537403" lon="4.137796"><ele>2</ele></trkpt><trkpt lat="43.537481" lon="4.13796"><ele>2</ele></trkpt><trkpt lat="43.537525" lon="4.138056"><ele>2</ele></trkpt><trkpt lat="43.537559" lon="4.138031"><ele>2</ele></trkpt><trkpt lat="43.537812" lon="4.138574"><ele>2</ele></trkpt><trkpt lat="43.538065" lon="4.139105"><ele>2</ele></trkpt><trkpt lat="43.538078" lon="4.139132"><ele>2</ele></trkpt><trkpt lat="43.53822" lon="4.139429"><ele>2</ele></trkpt><trkpt lat="43.538307" lon="4.139608"><ele>2</ele></trkpt><trkpt lat="43.538557" lon="4.140138"><ele>2</ele></trkpt><trkpt lat="43.538772" lon="4.140588"><ele>2</ele></trkpt><trkpt lat="43.538799" lon="4.140646"><ele>2</ele></trkpt><trkpt lat="43.538921" lon="4.1409"><ele>2</ele></trkpt><trkpt lat="43.539042" lon="4.141154"><ele>2</ele></trkpt><trkpt lat="43.539133" lon="4.141349"><ele>2</ele></trkpt><trkpt lat="43.539155" lon="4.141394"><ele>2</ele></trkpt><trkpt lat="43.539275" lon="4.14165"><ele>2</ele></trkpt><trkpt lat="43.539395" lon="4.141898"><ele>2</ele></trkpt><trkpt lat="43.539412" lon="4.141934"><ele>2</ele></trkpt><trkpt lat="43.539508" lon="4.142112"><ele>1</ele></trkpt><trkpt lat="43.539478" lon="4.142173"><ele>1</ele></trkpt><trkpt lat="43.540122" lon="4.143334"><ele>0.8</ele></trkpt><trkpt lat="43.540231" lon="4.1436"><ele>0.8</ele></trkpt><trkpt lat="43.540293" lon="4.143838"><ele>0</ele></trkpt><trkpt lat="43.54026" lon="4.143836"><ele>0.5</ele></trkpt><trkpt lat="43.54022" lon="4.143803"><ele>0.5</ele></trkpt><trkpt lat="43.540133" lon="4.143621"><ele>0.6</ele></trkpt><trkpt lat="43.540074" lon="4.143579"><ele>0.7</ele></trkpt><trkpt lat="43.540074" lon="4.143494"><ele>0.7</ele></trkpt><trkpt lat="43.540036" lon="4.143396"><ele>0.6</ele></trkpt><trkpt lat="43.540029" lon="4.143258"><ele>1</ele></trkpt><trkpt lat="43.540058" lon="4.143183"><ele>1</ele></trkpt><trkpt lat="43.540112" lon="4.143127"><ele>1</ele></trkpt><trkpt lat="43.540221" lon="4.143026"><ele>1</ele></trkpt><trkpt lat="43.54043" lon="4.142831"><ele>1</ele></trkpt><trkpt lat="43.540453" lon="4.14281"><ele>1</ele></trkpt><trkpt lat="43.541293" lon="4.142042"><ele>1</ele></trkpt><trkpt lat="43.541274" lon="4.142098"><ele>1</ele></trkpt><trkpt lat="43.541107" lon="4.142311"><ele>1</ele></trkpt><trkpt lat="43.540788" lon="4.14264"><ele>1</ele></trkpt><trkpt lat="43.540583" lon="4.142827"><ele>1</ele></trkpt><trkpt lat="43.540504" lon="4.142931"><ele>1</ele></trkpt><trkpt lat="43.540474" lon="4.143009"><ele>1</ele></trkpt><trkpt lat="43.540817" lon="4.143719"><ele>0.8</ele></trkpt><trkpt lat="43.541597" lon="4.14541"><ele>0</ele></trkpt><trkpt lat="43.541837" lon="4.145822"><ele>0</ele></trkpt><trkpt lat="43.542082" lon="4.146421"><ele>0</ele></trkpt><trkpt lat="43.544088" lon="4.151008"><ele>0</ele></trkpt><trkpt lat="43.544344" lon="4.151712"><ele>0</ele></trkpt><trkpt lat="43.544827" lon="4.152717"><ele>0</ele></trkpt><trkpt lat="43.545895" lon="4.155233"><ele>-1</ele></trkpt><trkpt lat="43.546811" lon="4.15724"><ele>0</ele></trkpt><trkpt lat="43.547471" lon="4.158737"><ele>0</ele></trkpt><trkpt lat="43.548208" lon="4.160553"><ele>0</ele></trkpt><trkpt lat="43.549134" lon="4.162729"><ele>1</ele></trkpt><trkpt lat="43.549924" lon="4.164723"><ele>0.1</ele></trkpt><trkpt lat="43.550006" lon="4.164978"><ele>0.1</ele></trkpt><trkpt lat="43.550221" lon="4.165423"><ele>0.2</ele></trkpt><trkpt lat="43.550826" lon="4.16681"><ele>0.7</ele></trkpt><trkpt lat="43.551657" lon="4.168827"><ele>2</ele></trkpt><trkpt lat="43.552488" lon="4.17081"><ele>1</ele></trkpt><trkpt lat="43.552665" lon="4.171227"><ele>1</ele></trkpt><trkpt lat="43.554479" lon="4.175534"><ele>0</ele></trkpt><trkpt lat="43.555474" lon="4.177407"><ele>-0.1</ele></trkpt><trkpt lat="43.55558" lon="4.177564"><ele>-0.1</ele></trkpt><trkpt lat="43.555645" lon="4.177719"><ele>-0.1</ele></trkpt><trkpt lat="43.556565" lon="4.179394"><ele>-0.2</ele></trkpt><trkpt lat="43.55667" lon="4.179614"><ele>-0.2</ele></trkpt><trkpt lat="43.55675" lon="4.179728"><ele>-0.2</ele></trkpt><trkpt lat="43.557164" lon="4.180465"><ele>0</ele></trkpt><trkpt lat="43.557503" lon="4.181063"><ele>0.1</ele></trkpt><trkpt lat="43.558162" lon="4.181965"><ele>0.3</ele></trkpt><trkpt lat="43.558902" lon="4.182775"><ele>0</ele></trkpt><trkpt lat="43.559281" lon="4.183114"><ele>0</ele></trkpt><trkpt lat="43.559537" lon="4.183313"><ele>0</ele></trkpt><trkpt lat="43.559707" lon="4.183442"><ele>0</ele></trkpt><trkpt lat="43.560396" lon="4.183882"><ele>0</ele></trkpt><trkpt lat="43.560769" lon="4.184132"><ele>0</ele></trkpt><trkpt lat="43.56125" lon="4.184353"><ele>0</ele></trkpt><trkpt lat="43.561621" lon="4.184519"><ele>0</ele></trkpt><trkpt lat="43.563493" lon="4.185109"><ele>0</ele></trkpt><trkpt lat="43.563705" lon="4.185025"><ele>0</ele></trkpt><trkpt lat="43.563993" lon="4.184724"><ele>0</ele></trkpt><trkpt lat="43.565247" lon="4.184722"><ele>0</ele></trkpt><trkpt lat="43.565617" lon="4.184799"><ele>0</ele></trkpt><trkpt lat="43.565766" lon="4.184906"><ele>0</ele></trkpt><trkpt lat="43.565882" lon="4.185068"><ele>0</ele></trkpt><trkpt lat="43.565987" lon="4.185548"><ele>0</ele></trkpt><trkpt lat="43.566068" lon="4.185629"><ele>0.4</ele></trkpt><trkpt lat="43.566838" lon="4.185846"><ele>0.4</ele></trkpt><trkpt lat="43.56694" lon="4.18591"><ele>0.5</ele></trkpt><trkpt lat="43.567094" lon="4.186086"><ele>1</ele></trkpt><trkpt lat="43.566876" lon="4.18654"><ele>1</ele></trkpt><trkpt lat="43.566878" lon="4.186562"><ele>1</ele></trkpt><trkpt lat="43.567482" lon="4.187031"><ele>1.2</ele></trkpt><trkpt lat="43.568355" lon="4.18814"><ele>2</ele></trkpt><trkpt lat="43.568484" lon="4.188306"><ele>0.8</ele></trkpt><trkpt lat="43.568649" lon="4.188441"><ele>0.6</ele></trkpt><trkpt lat="43.568847" lon="4.188504"><ele>0.7</ele></trkpt><trkpt lat="43.569181" lon="4.188559"><ele>0</ele></trkpt><trkpt lat="43.56918" lon="4.188694"><ele>0</ele></trkpt><trkpt lat="43.569119" lon="4.189392"><ele>0</ele></trkpt><trkpt lat="43.568999" lon="4.189528"><ele>1</ele></trkpt><trkpt lat="43.568976" lon="4.189524"><ele>1</ele></trkpt><trkpt lat="43.568921" lon="4.18955"><ele>1</ele></trkpt><trkpt lat="43.568876" lon="4.189631"><ele>1</ele></trkpt><trkpt lat="43.568884" lon="4.189741"><ele>1</ele></trkpt><trkpt lat="43.568839" lon="4.189958"><ele>1</ele></trkpt><trkpt lat="43.56879" lon="4.19008"><ele>1</ele></trkpt><trkpt lat="43.568662" lon="4.190333"><ele>1</ele></trkpt><trkpt lat="43.568462" lon="4.190703"><ele>5</ele></trkpt><trkpt lat="43.568365" lon="4.190994"><ele>5</ele></trkpt><trkpt lat="43.568357" lon="4.191131"><ele>5</ele></trkpt><trkpt lat="43.568371" lon="4.191216"><ele>5</ele></trkpt><trkpt lat="43.568401" lon="4.191285"><ele>5</ele></trkpt><trkpt lat="43.568518" lon="4.191403"><ele>5</ele></trkpt><trkpt lat="43.568784" lon="4.191582"><ele>3</ele></trkpt><trkpt lat="43.568844" lon="4.191592"><ele>2</ele></trkpt><trkpt lat="43.56891" lon="4.191642"><ele>2</ele></trkpt><trkpt lat="43.569325" lon="4.191936"><ele>2</ele></trkpt><trkpt lat="43.569377" lon="4.191973"><ele>2</ele></trkpt><trkpt lat="43.569624" lon="4.192112"><ele>2</ele></trkpt><trkpt lat="43.569716" lon="4.192164"><ele>2</ele></trkpt><trkpt lat="43.569805" lon="4.192175"><ele>2</ele></trkpt><trkpt lat="43.569858" lon="4.192149"><ele>2</ele></trkpt><trkpt lat="43.569953" lon="4.192056"><ele>2</ele></trkpt><trkpt lat="43.570191" lon="4.191729"><ele>2</ele></trkpt><trkpt lat="43.570238" lon="4.191662"><ele>2</ele></trkpt><trkpt lat="43.570501" lon="4.192025"><ele>2</ele></trkpt><trkpt lat="43.571912" lon="4.193913"><ele>1.7</ele></trkpt><trkpt lat="43.572008" lon="4.19417"><ele>1.6</ele></trkpt><trkpt lat="43.572062" lon="4.194272"><ele>1.3</ele></trkpt><trkpt lat="43.572298" lon="4.194544"><ele>1.2</ele></trkpt><trkpt lat="43.572574" lon="4.194816"><ele>1.1</ele></trkpt><trkpt lat="43.572829" lon="4.195187"><ele>1</ele></trkpt><trkpt lat="43.573007" lon="4.195485"><ele>0</ele></trkpt><trkpt lat="43.573051" lon="4.195646"><ele>0</ele></trkpt><trkpt lat="43.573113" lon="4.19576"><ele>0.8</ele></trkpt><trkpt lat="43.573351" lon="4.196017"><ele>1</ele></trkpt><trkpt lat="43.573516" lon="4.19623"><ele>1</ele></trkpt><trkpt lat="43.573937" lon="4.19677"><ele>1</ele></trkpt><trkpt lat="43.574588" lon="4.197695"><ele>1</ele></trkpt><trkpt lat="43.575001" lon="4.19823"><ele>1</ele></trkpt><trkpt lat="43.575207" lon="4.198391"><ele>1</ele></trkpt><trkpt lat="43.57566" lon="4.198972"><ele>1</ele></trkpt><trkpt lat="43.575859" lon="4.199284"><ele>0.8</ele></trkpt><trkpt lat="43.576005" lon="4.19959"><ele>0.6</ele></trkpt><trkpt lat="43.576818" lon="4.200723"><ele>2</ele></trkpt><trkpt lat="43.577203" lon="4.201218"><ele>2.5</ele></trkpt><trkpt lat="43.577435" lon="4.201641"><ele>2.3</ele></trkpt><trkpt lat="43.578165" lon="4.202562"><ele>2.2</ele></trkpt><trkpt lat="43.578692" lon="4.203319"><ele>1.9</ele></trkpt><trkpt lat="43.579245" lon="4.204009"><ele>1.6</ele></trkpt><trkpt lat="43.579666" lon="4.204616"><ele>1</ele></trkpt><trkpt lat="43.580163" lon="4.205409"><ele>1</ele></trkpt><trkpt lat="43.582129" lon="4.208081"><ele>2.7</ele></trkpt><trkpt lat="43.582758" lon="4.20898"><ele>3.2</ele></trkpt><trkpt lat="43.583784" lon="4.210388"><ele>3</ele></trkpt><trkpt lat="43.583996" lon="4.210706"><ele>3</ele></trkpt><trkpt lat="43.584438" lon="4.211269"><ele>3</ele></trkpt><trkpt lat="43.587282" lon="4.215211"><ele>3</ele></trkpt><trkpt lat="43.587317" lon="4.215191"><ele>3</ele></trkpt><trkpt lat="43.587356" lon="4.215169"><ele>1.8</ele></trkpt><trkpt lat="43.587449" lon="4.215159"><ele>1.6</ele></trkpt><trkpt lat="43.58773" lon="4.21519"><ele>1</ele></trkpt><trkpt lat="43.587747" lon="4.214938"><ele>0.4</ele></trkpt><trkpt lat="43.587749" lon="4.214553"><ele>0.3</ele></trkpt><trkpt lat="43.587731" lon="4.214283"><ele>0.3</ele></trkpt><trkpt lat="43.587682" lon="4.213949"><ele>0.4</ele></trkpt><trkpt lat="43.587623" lon="4.213663"><ele>0.4</ele></trkpt><trkpt lat="43.587464" lon="4.213123"><ele>0.6</ele></trkpt><trkpt lat="43.587283" lon="4.212729"><ele>0.9</ele></trkpt><trkpt lat="43.587105" lon="4.212448"><ele>0.9</ele></trkpt><trkpt lat="43.586142" lon="4.211032"><ele>1.8</ele></trkpt><trkpt lat="43.586031" lon="4.210816"><ele>1.8</ele></trkpt><trkpt lat="43.585859" lon="4.210396"><ele>2</ele></trkpt><trkpt lat="43.585817" lon="4.210172"><ele>6.4</ele></trkpt><trkpt lat="43.585826" lon="4.210015"><ele>8</ele></trkpt><trkpt lat="43.58587" lon="4.209936"><ele>8</ele></trkpt><trkpt lat="43.585892" lon="4.209811"><ele>8</ele></trkpt><trkpt lat="43.585884" lon="4.209721"><ele>8</ele></trkpt><trkpt lat="43.585984" lon="4.209675"><ele>8</ele></trkpt><trkpt lat="43.586233" lon="4.209599"><ele>8</ele></trkpt><trkpt lat="43.58636" lon="4.209625"><ele>8</ele></trkpt><trkpt lat="43.586481" lon="4.209713"><ele>8</ele></trkpt><trkpt lat="43.586636" lon="4.20987"><ele>8</ele></trkpt><trkpt lat="43.58691" lon="4.210043"><ele>8</ele></trkpt><trkpt lat="43.587008" lon="4.210069"><ele>8</ele></trkpt><trkpt lat="43.587333" lon="4.210064"><ele>8</ele></trkpt><trkpt lat="43.588103" lon="4.210057"><ele>1</ele></trkpt><trkpt lat="43.588502" lon="4.210072"><ele>1</ele></trkpt><trkpt lat="43.589111" lon="4.210271"><ele>1</ele></trkpt><trkpt lat="43.589291" lon="4.210313"><ele>0</ele></trkpt><trkpt lat="43.589357" lon="4.210414"><ele>0</ele></trkpt><trkpt lat="43.589341" lon="4.210465"><ele>0</ele></trkpt><trkpt lat="43.589298" lon="4.2105"><ele>0</ele></trkpt><trkpt lat="43.588914" lon="4.210618"><ele>0</ele></trkpt><trkpt lat="43.588844" lon="4.210593"><ele>0</ele></trkpt><trkpt lat="43.588729" lon="4.210455"><ele>0</ele></trkpt><trkpt lat="43.588685" lon="4.210424"><ele>0</ele></trkpt><trkpt lat="43.588628" lon="4.210406"><ele>0</ele></trkpt><trkpt lat="43.588495" lon="4.210411"><ele>0</ele></trkpt><trkpt lat="43.58837" lon="4.210429"><ele>0</ele></trkpt><trkpt lat="43.58825" lon="4.210472"><ele>0</ele></trkpt><trkpt lat="43.58813" lon="4.210571"><ele>0</ele></trkpt><trkpt lat="43.588158" lon="4.210754"><ele>0</ele></trkpt><trkpt lat="43.588176" lon="4.21097"><ele>0</ele></trkpt><trkpt lat="43.588294" lon="4.211895"><ele>0</ele></trkpt><trkpt lat="43.588398" lon="4.212412"><ele>0</ele></trkpt><trkpt lat="43.58863" lon="4.213303"><ele>0</ele></trkpt><trkpt lat="43.59041" lon="4.218774"><ele>0</ele></trkpt><trkpt lat="43.590844" lon="4.219768"><ele>0</ele></trkpt><trkpt lat="43.590955" lon="4.220022"><ele>0</ele></trkpt><trkpt lat="43.591284" lon="4.220579"><ele>0</ele></trkpt><trkpt lat="43.59165" lon="4.221169"><ele>0</ele></trkpt><trkpt lat="43.594453" lon="4.22506"><ele>0</ele></trkpt><trkpt lat="43.59472" lon="4.225522"><ele>0</ele></trkpt><trkpt lat="43.59488" lon="4.225744"><ele>0</ele></trkpt><trkpt lat="43.595109" lon="4.225953"><ele>0</ele></trkpt><trkpt lat="43.595886" lon="4.227004"><ele>0</ele></trkpt><trkpt lat="43.603818" lon="4.23797"><ele>0</ele></trkpt><trkpt lat="43.606115" lon="4.241022"><ele>-1</ele></trkpt><trkpt lat="43.606368" lon="4.241519"><ele>-1</ele></trkpt><trkpt lat="43.606561" lon="4.241786"><ele>1</ele></trkpt><trkpt lat="43.607001" lon="4.242287"><ele>1</ele></trkpt><trkpt lat="43.615141" lon="4.253499"><ele>0</ele></trkpt><trkpt lat="43.619015" lon="4.258847"><ele>0</ele></trkpt><trkpt lat="43.61903" lon="4.258921"><ele>0</ele></trkpt><trkpt lat="43.619292" lon="4.259402"><ele>0</ele></trkpt><trkpt lat="43.619466" lon="4.259636"><ele>0</ele></trkpt><trkpt lat="43.619814" lon="4.260028"><ele>0</ele></trkpt><trkpt lat="43.619931" lon="4.26012"><ele>0</ele></trkpt><trkpt lat="43.625326" lon="4.26756"><ele>0</ele></trkpt><trkpt lat="43.62988" lon="4.273905"><ele>0</ele></trkpt><trkpt lat="43.630118" lon="4.274297"><ele>0</ele></trkpt><trkpt lat="43.6304" lon="4.274864"><ele>0</ele></trkpt><trkpt lat="43.631779" lon="4.278051"><ele>0</ele></trkpt><trkpt lat="43.634977" lon="4.285644"><ele>0</ele></trkpt><trkpt lat="43.636071" lon="4.288192"><ele>0</ele></trkpt><trkpt lat="43.636226" lon="4.288488"><ele>0</ele></trkpt><trkpt lat="43.636542" lon="4.289699"><ele>0</ele></trkpt><trkpt lat="43.636701" lon="4.290426"><ele>0</ele></trkpt><trkpt lat="43.63689" lon="4.291623"><ele>0</ele></trkpt><trkpt lat="43.636903" lon="4.291779"><ele>0</ele></trkpt><trkpt lat="43.636949" lon="4.291941"><ele>0</ele></trkpt><trkpt lat="43.637246" lon="4.29375"><ele>0</ele></trkpt><trkpt lat="43.637609" lon="4.295702"><ele>1</ele></trkpt><trkpt lat="43.637801" lon="4.296494"><ele>1</ele></trkpt><trkpt lat="43.637931" lon="4.297217"><ele>1</ele></trkpt><trkpt lat="43.63806" lon="4.298005"><ele>1</ele></trkpt><trkpt lat="43.638146" lon="4.29803"><ele>1</ele></trkpt><trkpt lat="43.638336" lon="4.298082"><ele>1</ele></trkpt><trkpt lat="43.63853" lon="4.298134"><ele>1</ele></trkpt><trkpt lat="43.638699" lon="4.298179"><ele>1</ele></trkpt><trkpt lat="43.638852" lon="4.298255"><ele>1</ele></trkpt><trkpt lat="43.638699" lon="4.29828"><ele>1</ele></trkpt><trkpt lat="43.638297" lon="4.298262"><ele>1</ele></trkpt><trkpt lat="43.637466" lon="4.298524"><ele>1</ele></trkpt><trkpt lat="43.637197" lon="4.298625"><ele>0.1</ele></trkpt><trkpt lat="43.637046" lon="4.298719"><ele>0.2</ele></trkpt><trkpt lat="43.636919" lon="4.298827"><ele>0.2</ele></trkpt><trkpt lat="43.636779" lon="4.299007"><ele>0.2</ele></trkpt><trkpt lat="43.636662" lon="4.299215"><ele>0.2</ele></trkpt><trkpt lat="43.636487" lon="4.299586"><ele>0</ele></trkpt><trkpt lat="43.636346" lon="4.299865"><ele>0</ele></trkpt><trkpt lat="43.636181" lon="4.30014"><ele>0</ele></trkpt><trkpt lat="43.629522" lon="4.308123"><ele>0</ele></trkpt><trkpt lat="43.621628" lon="4.317583"><ele>0</ele></trkpt><trkpt lat="43.612486" lon="4.328478"><ele>0</ele></trkpt><trkpt lat="43.609657" lon="4.331901"><ele>0</ele></trkpt><trkpt lat="43.608748" lon="4.332943"><ele>0</ele></trkpt><trkpt lat="43.606834" lon="4.335248"><ele>0</ele></trkpt><trkpt lat="43.606791" lon="4.335299"><ele>0</ele></trkpt><trkpt lat="43.606418" lon="4.33574"><ele>1.2</ele></trkpt><trkpt lat="43.606049" lon="4.336142"><ele>1.5</ele></trkpt><trkpt lat="43.60583" lon="4.336264"><ele>1.3</ele></trkpt><trkpt lat="43.60544" lon="4.336372"><ele>2</ele></trkpt><trkpt lat="43.605405" lon="4.336387"><ele>2</ele></trkpt><trkpt lat="43.605276" lon="4.33645"><ele>2</ele></trkpt><trkpt lat="43.60533" lon="4.336606"><ele>2</ele></trkpt><trkpt lat="43.605384" lon="4.336821"><ele>2</ele></trkpt><trkpt lat="43.605419" lon="4.337042"><ele>2</ele></trkpt><trkpt lat="43.605421" lon="4.337213"><ele>2</ele></trkpt><trkpt lat="43.605313" lon="4.337717"><ele>2</ele></trkpt><trkpt lat="43.605195" lon="4.339439"><ele>1.5</ele></trkpt><trkpt lat="43.605111" lon="4.340024"><ele>1.3</ele></trkpt><trkpt lat="43.60496" lon="4.340915"><ele>1</ele></trkpt><trkpt lat="43.604762" lon="4.343067"><ele>0.1</ele></trkpt><trkpt lat="43.604751" lon="4.343295"><ele>0.1</ele></trkpt><trkpt lat="43.604784" lon="4.343989"><ele>0</ele></trkpt><trkpt lat="43.60476" lon="4.344798"><ele>0.2</ele></trkpt><trkpt lat="43.604603" lon="4.347535"><ele>1</ele></trkpt><trkpt lat="43.604557" lon="4.34816"><ele>1</ele></trkpt><trkpt lat="43.604444" lon="4.348948"><ele>1</ele></trkpt><trkpt lat="43.604436" lon="4.349211"><ele>1</ele></trkpt><trkpt lat="43.604837" lon="4.355284"><ele>0</ele></trkpt><trkpt lat="43.605224" lon="4.35779"><ele>1</ele></trkpt><trkpt lat="43.605241" lon="4.357975"><ele>1</ele></trkpt><trkpt lat="43.605233" lon="4.358077"><ele>1</ele></trkpt><trkpt lat="43.605215" lon="4.358189"><ele>1</ele></trkpt><trkpt lat="43.605186" lon="4.358343"><ele>1</ele></trkpt><trkpt lat="43.604772" lon="4.359793"><ele>0.5</ele></trkpt><trkpt lat="43.604739" lon="4.359994"><ele>0.4</ele></trkpt><trkpt lat="43.604729" lon="4.360344"><ele>0.2</ele></trkpt><trkpt lat="43.604739" lon="4.360643"><ele>0.2</ele></trkpt><trkpt lat="43.604774" lon="4.360926"><ele>0.2</ele></trkpt><trkpt lat="43.604876" lon="4.361411"><ele>0</ele></trkpt><trkpt lat="43.604903" lon="4.361618"><ele>0</ele></trkpt><trkpt lat="43.604925" lon="4.367095"><ele>1</ele></trkpt><trkpt lat="43.604917" lon="4.367281"><ele>1</ele></trkpt><trkpt lat="43.60481" lon="4.369325"><ele>0.8</ele></trkpt><trkpt lat="43.60482" lon="4.369855"><ele>0.6</ele></trkpt><trkpt lat="43.60489" lon="4.370804"><ele>0.3</ele></trkpt><trkpt lat="43.605133" lon="4.372573"><ele>0</ele></trkpt><trkpt lat="43.605676" lon="4.3766"><ele>1</ele></trkpt><trkpt lat="43.605684" lon="4.376969"><ele>1</ele></trkpt><trkpt lat="43.605582" lon="4.378984"><ele>0.5</ele></trkpt><trkpt lat="43.605568" lon="4.380642"><ele>0</ele></trkpt><trkpt lat="43.605546" lon="4.381937"><ele>1</ele></trkpt><trkpt lat="43.605558" lon="4.382285"><ele>1</ele></trkpt><trkpt lat="43.605664" lon="4.382728"><ele>1</ele></trkpt><trkpt lat="43.606458" lon="4.385084"><ele>1</ele></trkpt><trkpt lat="43.607605" lon="4.387259"><ele>0</ele></trkpt><trkpt lat="43.607836" lon="4.387698"><ele>0</ele></trkpt><trkpt lat="43.608499" lon="4.389011"><ele>0</ele></trkpt><trkpt lat="43.608555" lon="4.389099"><ele>0</ele></trkpt><trkpt lat="43.608634" lon="4.389166"><ele>0</ele></trkpt><trkpt lat="43.608774" lon="4.389252"><ele>0</ele></trkpt><trkpt lat="43.608849" lon="4.38932"><ele>0.4</ele></trkpt><trkpt lat="43.609078" lon="4.389741"><ele>0.6</ele></trkpt><trkpt lat="43.609196" lon="4.389908"><ele>1</ele></trkpt><trkpt lat="43.609376" lon="4.390161"><ele>1</ele></trkpt><trkpt lat="43.609491" lon="4.390358"><ele>1</ele></trkpt><trkpt lat="43.609576" lon="4.390576"><ele>1</ele></trkpt><trkpt lat="43.609666" lon="4.390851"><ele>1</ele></trkpt><trkpt lat="43.610192" lon="4.392731"><ele>0.3</ele></trkpt><trkpt lat="43.610616" lon="4.394061"><ele>0</ele></trkpt><trkpt lat="43.610981" lon="4.395256"><ele>0</ele></trkpt><trkpt lat="43.611121" lon="4.395801"><ele>0</ele></trkpt><trkpt lat="43.611187" lon="4.396206"><ele>0</ele></trkpt><trkpt lat="43.61161" lon="4.399966"><ele>0</ele></trkpt><trkpt lat="43.613086" lon="4.413099"><ele>1</ele></trkpt><trkpt lat="43.613131" lon="4.413293"><ele>1</ele></trkpt><trkpt lat="43.613216" lon="4.413415"><ele>1</ele></trkpt><trkpt lat="43.613983" lon="4.413947"><ele>1</ele></trkpt><trkpt lat="43.614283" lon="4.414256"><ele>1</ele></trkpt><trkpt lat="43.616839" lon="4.415853"><ele>2</ele></trkpt><trkpt lat="43.61841" lon="4.416955"><ele>1.1</ele></trkpt><trkpt lat="43.618556" lon="4.417086"><ele>1.1</ele></trkpt><trkpt lat="43.618904" lon="4.417462"><ele>1</ele></trkpt><trkpt lat="43.619048" lon="4.41757"><ele>1</ele></trkpt><trkpt lat="43.619196" lon="4.417648"><ele>1</ele></trkpt><trkpt lat="43.619833" lon="4.417895"><ele>0.9</ele></trkpt><trkpt lat="43.620049" lon="4.418052"><ele>0.9</ele></trkpt><trkpt lat="43.620459" lon="4.418406"><ele>0.8</ele></trkpt><trkpt lat="43.621375" lon="4.419259"><ele>0.3</ele></trkpt><trkpt lat="43.621887" lon="4.419844"><ele>0.4</ele></trkpt><trkpt lat="43.622326" lon="4.420303"><ele>0.4</ele></trkpt><trkpt lat="43.622667" lon="4.420815"><ele>0.5</ele></trkpt><trkpt lat="43.622833" lon="4.421111"><ele>2</ele></trkpt><trkpt lat="43.623019" lon="4.421357"><ele>2</ele></trkpt><trkpt lat="43.623198" lon="4.421531"><ele>2</ele></trkpt><trkpt lat="43.623964" lon="4.421994"><ele>2</ele></trkpt><trkpt lat="43.624056" lon="4.422087"><ele>2</ele></trkpt><trkpt lat="43.624149" lon="4.422217"><ele>2</ele></trkpt><trkpt lat="43.6242" lon="4.422334"><ele>2</ele></trkpt><trkpt lat="43.624407" lon="4.423199"><ele>1.8</ele></trkpt><trkpt lat="43.624764" lon="4.424461"><ele>2.7</ele></trkpt><trkpt lat="43.624801" lon="4.424578"><ele>2.7</ele></trkpt><trkpt lat="43.6249" lon="4.424744"><ele>2.9</ele></trkpt><trkpt lat="43.625335" lon="4.424998"><ele>3.3</ele></trkpt><trkpt lat="43.62573" lon="4.425157"><ele>3.3</ele></trkpt><trkpt lat="43.628639" lon="4.425905"><ele>4</ele></trkpt><trkpt lat="43.628956" lon="4.425967"><ele>4</ele></trkpt><trkpt lat="43.629056" lon="4.425919"><ele>3.2</ele></trkpt><trkpt lat="43.62929" lon="4.425618"><ele>3.2</ele></trkpt><trkpt lat="43.629396" lon="4.425508"><ele>3.3</ele></trkpt><trkpt lat="43.629459" lon="4.425491"><ele>3</ele></trkpt><trkpt lat="43.629492" lon="4.425339"><ele>3</ele></trkpt><trkpt lat="43.630112" lon="4.424426"><ele>3</ele></trkpt><trkpt lat="43.630875" lon="4.42336"><ele>3</ele></trkpt><trkpt lat="43.631513" lon="4.422512"><ele>2</ele></trkpt><trkpt lat="43.632717" lon="4.420887"><ele>2</ele></trkpt><trkpt lat="43.633093" lon="4.420359"><ele>1.7</ele></trkpt><trkpt lat="43.633754" lon="4.4188"><ele>1.2</ele></trkpt><trkpt lat="43.633808" lon="4.418403"><ele>1.2</ele></trkpt><trkpt lat="43.633811" lon="4.413388"><ele>1</ele></trkpt><trkpt lat="43.633792" lon="4.413082"><ele>1</ele></trkpt><trkpt lat="43.634931" lon="4.40683"><ele>0</ele></trkpt><trkpt lat="43.634755" lon="4.405593"><ele>0.7</ele></trkpt><trkpt lat="43.634768" lon="4.405105"><ele>1</ele></trkpt><trkpt lat="43.635142" lon="4.404188"><ele>1</ele></trkpt><trkpt lat="43.63565" lon="4.40425"><ele>0</ele></trkpt><trkpt lat="43.635771" lon="4.404264"><ele>0</ele></trkpt><trkpt lat="43.635863" lon="4.404277"><ele>0</ele></trkpt><trkpt lat="43.635951" lon="4.404291"><ele>0</ele></trkpt><trkpt lat="43.636236" lon="4.404335"><ele>0</ele></trkpt><trkpt lat="43.636325" lon="4.404345"><ele>0</ele></trkpt><trkpt lat="43.636398" lon="4.404356"><ele>0</ele></trkpt><trkpt lat="43.636511" lon="4.404373"><ele>0</ele></trkpt><trkpt lat="43.63686" lon="4.404418"><ele>0.3</ele></trkpt><trkpt lat="43.63724" lon="4.404441"><ele>0.3</ele></trkpt><trkpt lat="43.638063" lon="4.404603"><ele>1</ele></trkpt><trkpt lat="43.643168" lon="4.405282"><ele>7</ele></trkpt><trkpt lat="43.644699" lon="4.405522"><ele>9</ele></trkpt><trkpt lat="43.645939" lon="4.405674"><ele>8.2</ele></trkpt><trkpt lat="43.646189" lon="4.405668"><ele>7</ele></trkpt><trkpt lat="43.646576" lon="4.405938"><ele>7</ele></trkpt><trkpt lat="43.648436" lon="4.407232"><ele>7</ele></trkpt><trkpt lat="43.65395" lon="4.410992"><ele>8</ele></trkpt><trkpt lat="43.655857" lon="4.412285"><ele>6</ele></trkpt><trkpt lat="43.657351" lon="4.413337"><ele>4</ele></trkpt><trkpt lat="43.65796" lon="4.413766"><ele>4</ele></trkpt><trkpt lat="43.661467" lon="4.416118"><ele>8.1</ele></trkpt><trkpt lat="43.662024" lon="4.416512"><ele>8.3</ele></trkpt><trkpt lat="43.663025" lon="4.41729"><ele>9</ele></trkpt><trkpt lat="43.663703" lon="4.417834"><ele>9.1</ele></trkpt><trkpt lat="43.664636" lon="4.41864"><ele>9.4</ele></trkpt><trkpt lat="43.665138" lon="4.419029"><ele>10</ele></trkpt><trkpt lat="43.665531" lon="4.419349"><ele>10</ele></trkpt><trkpt lat="43.66715" lon="4.420579"><ele>10</ele></trkpt><trkpt lat="43.667505" lon="4.42081"><ele>10</ele></trkpt><trkpt lat="43.667942" lon="4.421094"><ele>10</ele></trkpt><trkpt lat="43.669693" lon="4.42208"><ele>12</ele></trkpt><trkpt lat="43.669767" lon="4.422127"><ele>12</ele></trkpt><trkpt lat="43.670009" lon="4.422259"><ele>12</ele></trkpt><trkpt lat="43.670515" lon="4.422537"><ele>12</ele></trkpt><trkpt lat="43.670987" lon="4.422772"><ele>14.4</ele></trkpt><trkpt lat="43.671349" lon="4.422918"><ele>14.5</ele></trkpt><trkpt lat="43.671725" lon="4.423122"><ele>15</ele></trkpt><trkpt lat="43.671851" lon="4.423192"><ele>15</ele></trkpt><trkpt lat="43.672701" lon="4.423663"><ele>15.3</ele></trkpt><trkpt lat="43.673344" lon="4.424103"><ele>16</ele></trkpt><trkpt lat="43.673669" lon="4.424354"><ele>16</ele></trkpt><trkpt lat="43.674213" lon="4.424701"><ele>16</ele></trkpt><trkpt lat="43.674458" lon="4.424811"><ele>16</ele></trkpt><trkpt lat="43.67462" lon="4.424854"><ele>16</ele></trkpt><trkpt lat="43.674737" lon="4.424853"><ele>16</ele></trkpt><trkpt lat="43.674779" lon="4.424845"><ele>16</ele></trkpt><trkpt lat="43.675104" lon="4.425234"><ele>10</ele></trkpt><trkpt lat="43.675328" lon="4.4255"><ele>10</ele></trkpt><trkpt lat="43.675575" lon="4.425902"><ele>10</ele></trkpt><trkpt lat="43.675663" lon="4.426057"><ele>10</ele></trkpt><trkpt lat="43.675823" lon="4.426342"><ele>10</ele></trkpt><trkpt lat="43.675835" lon="4.426363"><ele>10</ele></trkpt><trkpt lat="43.675947" lon="4.426558"><ele>10</ele></trkpt><trkpt lat="43.67619" lon="4.426957"><ele>8</ele></trkpt><trkpt lat="43.676205" lon="4.427166"><ele>8</ele></trkpt><trkpt lat="43.676395" lon="4.427825"><ele>8</ele></trkpt><trkpt lat="43.676648" lon="4.428697"><ele>8</ele></trkpt><trkpt lat="43.676857" lon="4.429505"><ele>9</ele></trkpt><trkpt lat="43.676923" lon="4.429746"><ele>9</ele></trkpt><trkpt lat="43.677126" lon="4.429707"><ele>16</ele></trkpt><trkpt lat="43.677451" lon="4.429679"><ele>16</ele></trkpt><trkpt lat="43.677915" lon="4.429638"><ele>16</ele></trkpt><trkpt lat="43.678888" lon="4.42954"><ele>16</ele></trkpt><trkpt lat="43.678924" lon="4.429842"><ele>16</ele></trkpt><trkpt lat="43.678977" lon="4.430331"><ele>16</ele></trkpt><trkpt lat="43.679083" lon="4.430512"><ele>16.5</ele></trkpt><trkpt lat="43.679248" lon="4.430728"><ele>16.9</ele></trkpt></trkseg></trk></gpx>